X,Y,OBJECTID,DVRPC_ID,SEPTA_ID,TYPE,LINE,STATION,OPERATOR,GLOBALID,COUNTY,STATE
-75.2514669408948,39.9975426161699,7,7,90521,Commuter Rail,Paoli/Thorndale Line,Merion,SEPTA,{3186790A-3294-451F-ACDF-090D405FF9FA},Montgomery,Pennsylvania
-75.6731331128948,39.6945095208242,329,329,90202,Commuter Rail,Wilmington/Newark Line,Churchmans Crossing,SEPTA,{9C868F4B-17E8-438F-9617-C9727F31955F},Bucks,Delaware
-74.9131128490098,40.1606387748682,37,38,90324,Commuter Rail,West Trenton Line,Langhorne,SEPTA,{404AE6A0-A2F6-4B83-908D-121ACB476B60},Bucks,Pennsylvania
-75.2467568448367,40.2738582957872,22,23,90534,Commuter Rail,Lansdale/Doylestown Line,Link Belt,SEPTA,{A8B80E47-A41A-43AB-9A60-93596A693884},Montgomery,Pennsylvania
-75.092516578274,40.1113787342745,90,91,90317,Commuter Rail,West Trenton Line,Meadowbrook,SEPTA,{7B08E211-B87A-4C47-B5B2-7F1A275A4CC4},Montgomery,Pennsylvania
-74.9522446938271,40.0717791692328,323,324,0,Intercity Passenger Rail,Amtrak (Multiple Routes),Cornwells Heights,Amtrak,{21E3F4CB-9AA6-4B5C-8F29-DBA8F026E028},Bucks,Pennsylvania
-75.3272363707178,40.0281871075796,1,1,90515,Commuter Rail,Paoli/Thorndale Line,Rosemont,SEPTA,{2435CD57-7095-4BE5-96A7-BCC32220D0EE},Montgomery,Pennsylvania
-75.2569411832391,40.1848393583399,73,74,90528,Commuter Rail,Lansdale/Doylestown Line,Gwynedd Valley,SEPTA,{F52F9F63-FB36-4643-B4D5-8DEB55B51F49},Montgomery,Pennsylvania
-75.2772583138996,40.2143533564909,72,73,90529,Commuter Rail,Lansdale/Doylestown Line,North Wales,SEPTA,{E6D5278E-29A3-46FA-BEB3-CF6445C5EA78},Montgomery,Pennsylvania
-74.9621398160401,40.1468380075433,36,37,90323,Commuter Rail,West Trenton Line,Neshaminy Falls,SEPTA,{E2A8D981-4615-40B8-BC5F-D95AD65FDF25},Bucks,Pennsylvania
-75.342486185323,40.0711475089864,251,252,0,Rapid Transit,Norristown High Speed Line,Gulph Mills,SEPTA,{873C16EA-6688-4430-88FE-A08B443B2625},Montgomery,Pennsylvania
-75.2903045117707,40.008426409257,4,4,90518,Commuter Rail,Paoli/Thorndale Line,Ardmore,SEPTA,{356ACEBB-EDFF-4F1B-B77F-178E3AB39D67},Montgomery,Pennsylvania
-75.2615403937932,40.0048660714119,6,6,90520,Commuter Rail,Paoli/Thorndale Line,Narberth,SEPTA,{2F85F7C3-BCEC-4F0E-93B1-3139165FF656},Montgomery,Pennsylvania
-75.2903045117707,40.008426409257,320,321,0,Intercity Passenger Rail,Amtrak (Multiple Routes),Ardmore,Amtrak,{9485FA8E-E88F-4B54-8DB8-64AF40657663},Montgomery,Pennsylvania
-75.1838403025825,40.118199587765,77,78,90524,Commuter Rail,Lansdale/Doylestown Line,Oreland,SEPTA,{5A85B16F-BE4B-491B-8D51-A8DD6BC9CD01},Montgomery,Pennsylvania
-75.2792626952436,40.2500088879188,331,332,0,Commuter Rail,Lansdale/Doylestown Line,9th Street,SEPTA,{43167307-3589-436B-8EEB-6EA52397DF65},Montgomery,Pennsylvania
-75.2901838606106,39.8962167445124,68,69,90213,Commuter Rail,Wilmington/Newark Line,Glenolden,SEPTA,{CBA7AAEB-67BB-4715-AED3-AB1D67E9B7B2},Delaware,Pennsylvania
-75.2819982928692,39.9117058197975,210,211,0,Surface Trolley,Route 102 Trolley,Andrews Avenue,SEPTA,{31AB837D-B468-4123-BCDB-4437F9CDF382},Delaware,Pennsylvania
-75.1852665461111,40.0628703718655,97,98,90716,Commuter Rail,Chestnut Hill East Line,Sedgwick,SEPTA,{F2825FD2-48FF-43AE-BB6B-D0B9C4E6D8AE},Philadelphia,Pennsylvania
-75.3920512513286,39.9182846415168,243,244,0,Surface Trolley,Route 101 Trolley,Veterans Square,SEPTA,{0C6208B6-3C6E-45C2-8341-07A69BCFF967},Delaware,Pennsylvania
-74.7162082007571,40.1482120582101,288,289,0,Light Rail,RiverLine,Bordentown,NJ Transit,{54E37FE8-E51A-488E-A32A-5A63E092B8A2},Burlington,New Jersey
-75.1578662774945,39.9787107906799,191,192,0,Subway,Broad Street Line,Cecil B. Moore,SEPTA,{E78B3626-B389-47F0-8F8E-8F0E02FF9B28},Philadelphia,Pennsylvania
-75.2545951686686,39.9129530555631,19,20,90217,Commuter Rail,Wilmington/Newark Line,Darby,SEPTA,{D375B834-D1D6-481B-97A4-7B544B5EC6CE},Delaware,Pennsylvania
-75.0211299924867,40.0042244797023,297,298,0,Light Rail,RiverLine,Palmyra,NJ Transit,{F2C43005-E001-4825-B5A1-D10BBB8BE678},Burlington,New Jersey
-74.7551220452393,40.2183613194037,283,284,0,Light Rail,RiverLine,Trenton Transit Center,NJ Transit,{E2F3D8EC-456A-42DD-A2A4-F1256CACB564},Mercer,New Jersey
-75.1916100134623,40.0509296467723,105,106,90805,Commuter Rail,Chestnut Hill West Line,Carpenter Lane,SEPTA,{02C998E3-6B55-4A8A-A133-891DD77311BF},Philadelphia,Pennsylvania
-75.3094537275173,39.8881192978912,66,67,90211,Commuter Rail,Wilmington/Newark Line,Prospect Park,SEPTA,{DF9DC355-510F-428D-90B5-2EDD5FD05357},Delaware,Pennsylvania
-75.0417014723931,39.9284539314443,274,275,0,Commuter Rail,Atlantic City Line,Cherry Hill,NJ Transit,{4516D6F7-DDC1-4A73-94EB-E88C61BF6ABD},Camden,New Jersey
-75.0644712371649,39.913574070703,306,307,0,Rapid Transit,PATCO,Collingswood,PATCO,{3B6C55D4-9F0C-4A09-938D-6B1ADCBEF3D7},Camden,New Jersey
-74.7538834309671,40.2185537371211,21,22,90701,Commuter Rail,Trenton Line,Trenton Transit Center,SEPTA,{11AB8760-4FD1-415E-B522-354911565F68},Mercer,New Jersey
-75.2903181878526,39.9266675411889,123,124,90309,Commuter Rail,Media/Elwyn Line,Clifton-Aldan,SEPTA,{B6447A0C-3DB3-4411-A3DA-FFCD0FFC8ACD},Delaware,Pennsylvania
-75.1568017744653,39.9472140997324,304,305,0,Rapid Transit,PATCO,9th-10th & Locust Street,PATCO,{6DA036E4-5FAA-4B4A-8D4D-EEE780126B19},Philadelphia,Pennsylvania
-75.020738894972,40.1278793913035,10,10,90320,Commuter Rail,West Trenton Line,Forest Hills,SEPTA,{AE192EF2-C66E-4943-8481-0280A959301A},Philadelphia,Pennsylvania
-75.1641417414439,39.9524594389376,179,180,0,Subway,Broad Street Line,City Hall,SEPTA,{06D159CC-E080-4761-B19D-ADC360971742},Philadelphia,Pennsylvania
-75.2714350145702,39.9373015038851,70,71,90311,Commuter Rail,Media/Elwyn Line,Lansdowne,SEPTA,{2666B56E-EC4A-4F68-9E98-2A45CDF66353},Delaware,Pennsylvania
-74.7538834309671,40.2185537371211,301,302,0,Commuter Rail,Northeast Corridor,Trenton Transit Center,NJ Transit,{42542F52-BCCE-4504-9049-5C01BE886E15},Mercer,New Jersey
-75.1685064838231,39.9298565884123,181,182,0,Subway,Broad Street Line,Tasker-Morris,SEPTA,{1024E643-CEA1-4433-82A5-B7CA8F5FC9CB},Philadelphia,Pennsylvania
-74.754312639283,40.2054264097894,287,288,0,Light Rail,RiverLine,Cass Street,NJ Transit,{8C6F60A3-602D-465B-A4AA-1FB70402E5DD},Mercer,New Jersey
-75.7105783053413,40.0020769931279,317,318,0,Intercity Passenger Rail,Amtrak (Keystone),Downingtown,Amtrak,{ECDD664F-41DC-4B6E-B22C-01C1124F1143},Chester,Pennsylvania
-75.389448074308,39.9179265938535,248,249,0,Surface Trolley,Route 101 Trolley,Jackson Street,SEPTA,{DEB21687-7805-46C0-8982-3EB225BB73AC},Delaware,Pennsylvania
-75.2791632001534,39.9529739501028,224,225,0,Surface Trolley,Route 101 & 102 Trolley Lines,Congress Avenue,SEPTA,{3DDE289A-01E3-4A4D-997F-6A316D044B83},Delaware,Pennsylvania
-75.3930087321401,39.8337006220378,61,62,90206,Commuter Rail,Wilmington/Newark Line,Highland Avenue,SEPTA,{3D6B61CD-9BA9-4E0F-B431-2DCFFD0E8803},Delaware,Pennsylvania
-75.2383531605646,39.944919322447,136,137,90313,Commuter Rail,Media/Elwyn Line,Angora,SEPTA,{C897A6CA-5C6B-4ECA-99BD-66B7A73A8F4F},Philadelphia,Pennsylvania
-75.3362225705565,40.0277877957985,256,257,0,Rapid Transit,Norristown High Speed Line,Garrett Hill,SEPTA,{D940013C-A03F-424F-BCAC-789475207C75},Delaware,Pennsylvania
-75.2890959906918,39.9487575263541,227,228,0,Surface Trolley,Route 101 & 102 Trolley Lines,Irvington Road,SEPTA,{10A73299-5560-4A61-8660-2BEE0418BDE5},Delaware,Pennsylvania
-75.3128054494437,39.9478495512735,239,240,0,Surface Trolley,Route 101 Trolley,Anderson Avenue,SEPTA,{3255E91A-B533-40B3-9574-920CC9E8A5FD},Delaware,Pennsylvania
-75.158373769851,39.9526490658717,28,29,90006,Commuter Rail,SEPTA Main Line,Jefferson Station,SEPTA,{C8ADEE24-D532-4947-A3B9-768FF7801234},Philadelphia,Pennsylvania
-75.1198274262562,39.9431120838056,314,315,0,Rapid Transit,PATCO,Broadway,PATCO,{05A47FE7-8D0D-4FEA-83F3-B992822BCFF9},Camden,New Jersey
-75.2982859696449,39.9934148689936,261,262,0,Rapid Transit,Norristown High Speed Line,Wynnewood Road,SEPTA,{8B547368-621D-42B6-BD8F-362B94245EF2},Delaware,Pennsylvania
-75.124736483945,39.9476530478189,278,279,0,Light Rail,RiverLine,Cooper Street/Rutgers University,NJ Transit,{4EC9481E-450F-443E-941C-B03F19FD6AF5},Camden,New Jersey
-75.280951843232,39.9103448186766,211,212,0,Surface Trolley,Route 102 Trolley,Collingdale,SEPTA,{29BFB151-8BB2-479C-8E7D-DCCC8C8C51ED},Delaware,Pennsylvania
-75.3579014973912,39.9153697514811,216,217,0,Surface Trolley,Route 101 Trolley,Paper Mill Road,SEPTA,{337FDACA-CC2D-451A-AFBB-AFE1B5C4EB00},Delaware,Pennsylvania
-75.2256715253874,39.9901518652751,115,116,90003,Commuter Rail,Cynwyd Line,Wynnefield Avenue,SEPTA,{2ECC1978-2D33-4D97-87AE-8FDCFEA4B39F},Philadelphia,Pennsylvania
-75.0838643219189,40.0165954876683,151,152,0,Subway-Elevated,Market/Frankford Line,Arrott Transportation Center,SEPTA,{BE719004-B17B-4B9F-B2C2-ADCDA662E9E3},Philadelphia,Pennsylvania
-75.2407096408235,39.9619704484186,164,165,0,Subway-Elevated,Market/Frankford Line,60th Street,SEPTA,{A04F888A-F59E-43CE-AA68-1297BB1092D8},Philadelphia,Pennsylvania
-75.4837576760284,40.0429565477667,319,320,0,Intercity Passenger Rail,Amtrak (Multiple Routes),Paoli,Amtrak,{ECB10CA1-EFC5-4D65-BA8E-F890472B04DB},Chester,Pennsylvania
-75.2164938704909,39.9436249353454,137,138,90314,Commuter Rail,Media/Elwyn Line,49th Street,SEPTA,{966365CF-DB7F-4951-9D6A-00A2568AFA25},Philadelphia,Pennsylvania
-75.4606083276577,40.0429468778936,49,50,90507,Commuter Rail,Paoli/Thorndale Line,Daylesford,SEPTA,{50FD4E80-F3AB-4B52-ACEE-D35DB02D7AF3},Chester,Pennsylvania
-75.1403967272336,39.9605421361504,174,175,0,Subway-Elevated,Market/Frankford Line,Spring Garden,SEPTA,{9FDED854-431E-4449-B4E1-A1C9132C75D4},Philadelphia,Pennsylvania
-75.2815775965579,39.9747683874277,264,265,0,Rapid Transit,Norristown High Speed Line,Township Line Road,SEPTA,{A6442994-E020-4E04-92B1-9899B63640EF},Delaware,Pennsylvania
-74.9844980947949,40.0544313254664,11,11,90707,Commuter Rail,Trenton Line,Torresdale,SEPTA,{C65E22C6-6989-4425-97B2-DA904D87FABF},Philadelphia,Pennsylvania
-75.4196013000868,39.8216251345461,127,128,90205,Commuter Rail,Wilmington/Newark Line,Marcus Hook,SEPTA,{5B06926A-74FF-4C9A-A1E1-C758B39DBFDD},Delaware,Pennsylvania
-75.1615084337992,40.0361871518348,147,148,90712,Commuter Rail,Chestnut Hill East Line,Wister,SEPTA,{0F6134BD-2982-4AEE-824A-9DAA44EE7F8B},Philadelphia,Pennsylvania
-75.3454506373824,39.9211186156963,240,241,0,Surface Trolley,Route 101 Trolley,Thomson Avenue,SEPTA,{01E5C55A-797F-4852-8E0E-057A42A7575B},Delaware,Pennsylvania
-75.3769147975904,39.9161786471571,218,219,0,Surface Trolley,Route 101 Trolley,Beatty Road,SEPTA,{6FD97EC8-32EF-48A2-89AF-708B1FD3192D},Delaware,Pennsylvania
-75.2855787315317,39.9176696598977,208,209,0,Surface Trolley,Route 102 Trolley,North Street,SEPTA,{B36055F2-D217-410E-AD4C-721A6BBA0D50},Delaware,Pennsylvania
-75.2742178760077,39.968692587642,265,266,0,Rapid Transit,Norristown High Speed Line,Parkview,SEPTA,{F70713D9-7726-4830-92E6-E61D1651D97C},Delaware,Pennsylvania
-75.0867418560189,40.0636635066005,145,146,90814,Commuter Rail,Fox Chase Line,Ryers,SEPTA,{FA950E60-37DE-40B3-8D41-ADB6338EF408},Philadelphia,Pennsylvania
-75.2327992013263,39.9609897259319,163,164,0,Subway-Elevated,Market/Frankford Line,56th Street,SEPTA,{0F85204A-972C-4B11-80B8-45EF0AAE683C},Philadelphia,Pennsylvania
-75.1553237662344,39.997264912056,322,323,0,Intercity Passenger Rail,Amtrak (Multiple Routes),North Philadelphia,Amtrak,{3D2E9862-B1D2-4953-A57E-1FF757AC5F9F},Philadelphia,Pennsylvania
-74.7040509461458,40.2553574699359,285,286,0,Commuter Rail,Northeast Corridor,Hamilton,NJ Transit,{32CBB247-08AE-4948-B766-93A4F8C9CD4B},Mercer,New Jersey
-75.3508923408597,39.9023331821529,60,61,90305,Commuter Rail,Media/Elwyn Line,Swarthmore,SEPTA,{22088964-7CD0-462A-A00D-DA482422D702},Delaware,Pennsylvania
-75.0961641092153,40.0059457409113,167,168,0,Subway-Elevated,Market/Frankford Line,Erie-Torresdale,SEPTA,{7A15861B-E703-4DEA-89E9-54FD057CE469},Philadelphia,Pennsylvania
-75.1710884799093,39.9168050102244,183,184,0,Subway,Broad Street Line,Oregon,SEPTA,{AA07597B-3BC1-4617-B92C-ACF32E935001},Philadelphia,Pennsylvania
-75.3473400388267,40.0501174353596,252,253,0,Rapid Transit,Norristown High Speed Line,County Line,SEPTA,{799A246C-D72B-4234-A18E-03AF5CD669F1},Delaware,Pennsylvania
-75.1822544237144,39.9566448041891,321,322,0,Intercity Passenger Rail,Amtrak (Multiple Routes),30th Street Station,Amtrak,{A67768B7-D188-4CCB-82FA-10B6AA71260F},Philadelphia,Pennsylvania
-75.321462016851,39.9448409879526,233,234,0,Surface Trolley,Route 101 Trolley,Drexeline,SEPTA,{E02C20E6-0D29-4FA3-8A65-CECE2A59FCF7},Delaware,Pennsylvania
-75.4837576760284,40.0429565477667,48,49,90506,Commuter Rail,Paoli/Thorndale Line,Paoli,SEPTA,{40476312-FC8B-4024-BFF7-3595C1F5EF61},Chester,Pennsylvania
-75.1652554826157,40.003788771145,110,111,90218,Commuter Rail,Manayunk/Norristown Line,Allegheny,SEPTA,{41749398-AFEB-4615-8CD2-BDB3B335D475},Philadelphia,Pennsylvania
-75.4424787414358,40.0480950379547,50,51,80508,Commuter Rail,Paoli/Thorndale Line,Berwyn,SEPTA,{BF8B65EE-A598-4AC1-8E99-7C9E9F56E272},Chester,Pennsylvania
-74.8690032910971,40.0745803769363,292,293,0,Light Rail,RiverLine,Burlington South,NJ Transit,{F1B3AEA0-0DC0-4527-825A-13580C1C1F47},Burlington,New Jersey
-75.3035194840962,39.9961759866916,270,271,0,Rapid Transit,Norristown High Speed Line,Ardmore Junction,SEPTA,{22850E3B-A473-4779-BDB6-09C3A2C002F4},Delaware,Pennsylvania
-75.2746085046877,39.9551075544389,223,224,0,Surface Trolley,Route 101 & 102 Trolley Lines,Beverly Hills,SEPTA,{D4C634B2-6953-4C83-B021-D364A9FF7217},Delaware,Pennsylvania
-75.0238556831701,40.0326493132799,12,12,90708,Commuter Rail,Trenton Line,Holmesburg Junction,SEPTA,{A74411B7-A7BE-46EB-8D1A-EEE0C8E103A6},Philadelphia,Pennsylvania
-75.2400740585771,39.8790205401037,141,142,90401,Commuter Rail,Airport Line,Airport Terminal E & F,SEPTA,{EC27626B-317E-4D01-888B-B124B1046804},Philadelphia,Pennsylvania
-74.7558067521876,40.2119610019962,286,287,0,Light Rail,RiverLine,Hamilton Avenue,NJ Transit,{9765A216-7473-432A-82D0-4DAB82DC2C83},Mercer,New Jersey
-75.309846961155,39.9157529904722,16,17,90307,Commuter Rail,Media/Elwyn Line,Secane,SEPTA,{D4EA93B0-27B2-4C63-8024-D9DA0EC796E4},Delaware,Pennsylvania
-75.1869409638346,40.0351218575776,107,108,90807,Commuter Rail,Chestnut Hill West Line,Tulpehocken,SEPTA,{FBD8C4EE-F72E-4B90-A549-30E65F8C4929},Philadelphia,Pennsylvania
-75.2920269313892,39.9287727292077,203,204,0,Surface Trolley,Route 102 Trolley,Penn Street,SEPTA,{1A7093D0-7C46-451F-9659-4E68674E2E1F},Delaware,Pennsylvania
-75.0698758587014,40.0107133384407,14,15,90710,Commuter Rail,Trenton Line,Bridesburg,SEPTA,{8F6C1235-9057-416D-AE1B-3B748E7B7AC4},Philadelphia,Pennsylvania
-74.8050609106368,40.0999904179917,290,291,0,Light Rail,RiverLine,Florence,NJ Transit,{81239A5E-3F16-4978-9DD4-A4FCC46B9B9A},Burlington,New Jersey
-75.1903272730018,39.947837077339,120,121,90406,Commuter Rail,Glenside Combined,University City,SEPTA,{DF396181-064A-434D-940C-AB5EF30824ED},Philadelphia,Pennsylvania
-75.3233467818816,40.0179974729846,258,259,0,Rapid Transit,Norristown High Speed Line,Bryn Mawr,SEPTA,{CED656F4-3C00-4132-86A3-C080A3500613},Delaware,Pennsylvania
-74.6241020354391,40.3160270364101,325,326,0,Intercity Passenger Rail,Amtrak (Multiple Routes),Princeton Junction,Amtrak,{1FF45C2C-0ED0-4744-9F91-8CC563349621},Mercer,New Jersey
-75.1274182919783,39.9887950870594,171,172,0,Subway-Elevated,Market/Frankford Line,Huntingdon,SEPTA,{7FE2A6BC-2656-4E19-835A-3C84FF1997E0},Philadelphia,Pennsylvania
-75.2928938769107,39.9312440671321,202,203,0,Surface Trolley,Route 102 Trolley,Baltimore Pike,SEPTA,{63E4DB67-2DDA-4249-A94D-D1FF74B3E9FE},Delaware,Pennsylvania
-75.2592801422526,39.9626282515146,159,160,0,Subway-Elevated,Market/Frankford Line,69th Street Terminal,SEPTA,{B47499C1-5F8F-42A2-994D-6E69084336EA},Delaware,Pennsylvania
-75.2965263502292,39.9422654497441,236,237,0,Surface Trolley,Route 102 Trolley,Drexel Manor,SEPTA,{DBA7A195-DE93-4482-85F9-CE425C3A1233},Delaware,Pennsylvania
-74.9503538715667,40.0480861022373,294,295,0,Light Rail,RiverLine,Delanco,NJ Transit,{CFA117FA-3572-447D-9F9F-E948A8088C2E},Burlington,New Jersey
-75.1335129522225,39.9786359704132,172,173,0,Subway-Elevated,Market/Frankford Line,Berks,SEPTA,{66A6F62E-AF26-410C-8D10-13BB19DD4823},Philadelphia,Pennsylvania
-75.0928488972257,40.0578721071681,144,145,90813,Commuter Rail,Fox Chase Line,Cheltenham,SEPTA,{CE5259A0-E393-4E4D-BF40-EC06F0C124C1},Philadelphia,Pennsylvania
-75.2998919090264,39.9487162331819,230,231,0,Surface Trolley,Route 101 Trolley,School Avenue,SEPTA,{C312FD3B-EEDB-4443-A9AA-12480FCA2CF8},Delaware,Pennsylvania
-75.1594456743394,39.9714654908458,190,191,0,Subway,Broad Street Line,Girard,SEPTA,{AE69541B-86BC-4B22-A598-A7BC83CBDF86},Philadelphia,Pennsylvania
-75.2650075455507,39.9080271449642,18,19,90216,Commuter Rail,Wilmington/Newark Line,Curtis Park,SEPTA,{1B5F0A9B-488C-455A-A1CF-EEAD01A9AD86},Delaware,Pennsylvania
-75.192063864192,40.0114202867759,111,112,90219,Commuter Rail,Manayunk/Norristown Line,East Falls,SEPTA,{C3AFE841-F433-422F-91D0-6ABE730A679A},Philadelphia,Pennsylvania
-75.2713079332722,39.9040961011564,17,18,90215,Commuter Rail,Wilmington/Newark Line,Sharon Hill,SEPTA,{906A3291-A4AF-418E-ACDB-BDBF5E2EF936},Delaware,Pennsylvania
-75.0112182079135,39.8701872646474,309,310,0,Rapid Transit,PATCO,Woodcrest,PATCO,{C53BB155-5F09-4A7C-98AB-09DA2C1A33C8},Camden,New Jersey
-75.2101994271826,40.0165622630067,112,113,90220,Commuter Rail,Manayunk/Norristown Line,Wissahickon Transportation Center,SEPTA,{3154FB05-4F00-4AF2-AA95-F10FD18CAF2E},Philadelphia,Pennsylvania
-75.1544774219537,39.9942514180973,132,133,90008,Commuter Rail,SEPTA Main Line,North Broad,SEPTA,{A4EA0713-F82E-49F6-A839-7CBC4730420B},Philadelphia,Pennsylvania
-75.3021122904193,39.8912409506167,67,68,90212,Commuter Rail,Wilmington/Newark Line,Norwood,SEPTA,{27AA23C0-2ED0-4C88-9D9A-C219657397EB},Delaware,Pennsylvania
-75.1032156028228,40.0513472549139,117,118,90812,Commuter Rail,Fox Chase Line,Lawndale,SEPTA,{8032DA88-11D9-465E-81AB-59C75267EB77},Montgomery,Pennsylvania
-75.1531625728752,40.1141682999816,87,88,90412,Commuter Rail,Warminster Line,Ardsley,SEPTA,{B4A10BF9-BBDC-43BF-8C81-A2DAD9B9BB8C},Montgomery,Pennsylvania
-75.3394722031811,40.0580720106726,269,270,0,Rapid Transit,Norristown High Speed Line,Matsonford,SEPTA,{69164ADA-7509-455F-842F-3C34F10EA308},Montgomery,Pennsylvania
-75.2817189380641,40.2301216412485,26,27,90530,Commuter Rail,Lansdale/Doylestown Line,Pennbrook,SEPTA,{10C858CF-1BC2-4C45-A75E-6E17288D3685},Montgomery,Pennsylvania
-75.1308434303368,40.3060224773215,30,31,90538,Commuter Rail,Lansdale/Doylestown Line,Doylestown,SEPTA,{1094B7DD-4A13-41F0-9031-1DCE8EF29D43},Bucks,Pennsylvania
-75.2662882742039,40.2595313748631,24,25,90532,Commuter Rail,Lansdale/Doylestown Line,Fortuna,SEPTA,{0DFE203A-2C55-4EE6-80FE-0D4A44F315B4},Montgomery,Pennsylvania
-75.231820697039,40.0067721150724,9,9,90001,Commuter Rail,Cynwyd Line,Cynwyd,SEPTA,{3709FEE2-E65A-4435-A145-FE2F58383EC4},Montgomery,Pennsylvania
-75.1106682219736,40.1074289093626,89,90,90316,Commuter Rail,West Trenton Line,Rydal,SEPTA,{C65C87BE-3A56-485A-A7C0-79B59DAB2AB3},Montgomery,Pennsylvania
-74.8909075209085,40.1908661008872,38,39,90325,Commuter Rail,West Trenton Line,Woodbourne,SEPTA,{75369FE9-2394-4828-A5A1-36044925EF48},Bucks,Pennsylvania
-75.1780590849501,40.0232858660891,109,110,90809,Commuter Rail,Chestnut Hill West Line,Queen Lane,SEPTA,{12A65D97-2546-48C4-AC6B-D86C28548106},Philadelphia,Pennsylvania
-74.8594258407271,40.0773377581788,291,292,0,Light Rail,RiverLine,Burlington Town Centre,NJ Transit,{A3E1FBB0-AC8E-4CDD-AAF2-A42D156101BA},Burlington,New Jersey
-75.2690710140724,39.9577000821481,221,222,0,Surface Trolley,Route 101 & 102 Trolley Lines,Bywood,SEPTA,{6234BC3C-788D-479A-BA3E-668B0F17DD41},Delaware,Pennsylvania
-75.083410693103,40.0763930679997,146,147,90815,Commuter Rail,Fox Chase Line,Fox Chase,SEPTA,{E4DF87D9-249F-40CC-9AD7-1AE328475DE0},Philadelphia,Pennsylvania
-75.2798731819394,39.9005091740313,134,135,90214,Commuter Rail,Wilmington/Newark Line,Folcroft,SEPTA,{042C7A12-F2C0-4AF4-ADE8-687D4CF0798D},Delaware,Pennsylvania
-75.2821229251308,39.9327630141621,69,70,90310,Commuter Rail,Media/Elwyn Line,Gladstone,SEPTA,{07675E8B-36F6-4BB0-8C12-37781DEE194A},Delaware,Pennsylvania
-75.2868012050436,39.9193840373172,207,208,0,Surface Trolley,Route 102 Trolley,Magnolia Avenue,SEPTA,{13F53304-C43C-4799-B0DA-F063FF6A86FD},Delaware,Pennsylvania
-75.1614769060046,39.9477101553416,303,304,0,Rapid Transit,PATCO,12th-13th & Locust Street,PATCO,{8FD436AC-AFC2-4FD0-82F4-70A2518AD931},Philadelphia,Pennsylvania
-75.3946909702067,39.9142548946996,57,58,90302,Commuter Rail,Media/Elwyn Line,Media,SEPTA,{B5BEFD87-5CB9-43A0-A19E-57C0EF3FA4B3},Delaware,Pennsylvania
-75.3856449804176,39.9173954031243,246,247,0,Surface Trolley,Route 101 Trolley,Edgmont Street,SEPTA,{5A4309DE-0508-4F56-811B-034EC837D148},Delaware,Pennsylvania
-75.1494334833375,39.9816587932341,118,119,90007,Commuter Rail,SEPTA Main Line,Temple University,SEPTA,{65D469CF-D3A7-4529-9D7A-F57005F619EB},Philadelphia,Pennsylvania
-75.7105783053413,40.0020769931279,44,45,90502,Commuter Rail,Paoli/Thorndale Line,Downingtown,SEPTA,{D5749558-4F65-4CE4-AAE4-2CB42DA93496},Chester,Pennsylvania
-75.244955415373,39.8916901093393,119,120,90405,Commuter Rail,Airport Line,Eastwick,SEPTA,{3A528906-0003-4463-BE2F-793ACB5F8739},Philadelphia,Pennsylvania
-75.1553237662344,39.997264912056,271,272,90810,Commuter Rail,Trenton Line,North Philadelphia,SEPTA,{B55DBA8E-1E73-4ADF-9F74-2F05E54FC653},Philadelphia,Pennsylvania
-75.1535613840108,39.9510487417225,177,178,0,Subway-Elevated,Market/Frankford Line,8th Street,SEPTA,{6F1C2EDC-322B-464B-8E30-A239857660B5},Philadelphia,Pennsylvania
-75.1910746052942,40.0652757641041,98,99,90717,Commuter Rail,Chestnut Hill East Line,Mount Airy,SEPTA,{538504C2-D969-4F11-8A7D-5174C78F47CF},Philadelphia,Pennsylvania
-75.1719277255968,40.0378573216873,148,149,90713,Commuter Rail,Chestnut Hill East Line,Germantown,SEPTA,{64BA6905-274D-4522-97B0-AA52F907DD5E},Philadelphia,Pennsylvania
-75.3284815307596,39.9080064695169,15,16,90306,Commuter Rail,Media/Elwyn Line,Morton,SEPTA,{99F5E1C6-87E6-4B3A-82AD-1305078128D9},Delaware,Pennsylvania
-75.2926768339562,39.9273709392175,212,213,0,Surface Trolley,Route 102 Trolley,Springfield Road,SEPTA,{5DFD96EE-1FD0-4DAE-8FB8-7B843280C825},Delaware,Pennsylvania
-75.2019624815879,39.9571534158683,157,158,0,Subway-Elevated,Market/Frankford Line,40th Street,SEPTA,{5EBBF6D3-A713-4DAA-848E-051C706E7C1E},Philadelphia,Pennsylvania
-75.1822544237096,39.9566448023872,273,274,0,Commuter Rail,Atlantic City Line,30th Street Station,NJ Transit,{2BE371E5-714D-4229-A468-A0B97498F4F9},Philadelphia,Pennsylvania
-75.3439691355586,40.0340470770481,254,255,0,Rapid Transit,Norristown High Speed Line,Villanova,SEPTA,{BA45B500-72C8-40C6-8DE9-9D2B7FEA6A17},Delaware,Pennsylvania
-75.1560405440175,39.9870842106185,192,193,0,Subway,Broad Street Line,Susquehanna-Dauphin,SEPTA,{1F392634-C8BD-4C6E-9241-155A75BD7C6B},Philadelphia,Pennsylvania
-75.1822544237144,39.9566448041891,155,156,90004,Subway-Elevated,Market/Frankford Line,30th Street,SEPTA,{3BEEE1C9-0B05-454B-8E7E-E841F6D34E2A},Philadelphia,Pennsylvania
-75.2781123566456,39.9066195987611,219,220,0,Surface Trolley,Route 102 Trolley,Sharon Hill,SEPTA,{241001B1-F43A-4F62-B100-E32EE0B6A625},Delaware,Pennsylvania
-75.1968747873658,40.0735437921879,99,100,90718,Commuter Rail,Chestnut Hill East Line,Wyndmoor,SEPTA,{AF12C6C9-0D68-4CD8-9E94-824BFCBB3DD5},Philadelphia,Pennsylvania
-75.1348019596927,40.0410240018172,143,144,90407,Commuter Rail,Glenside Combined,Fern Rock Transportation Center,SEPTA,{D288A66C-1F27-4D60-961F-E055FCBDBC4B},Philadelphia,Pennsylvania
-75.3828502976995,39.9170167652732,245,246,0,Surface Trolley,Route 101 Trolley,Manchester Avenue,SEPTA,{28F3F263-4805-422F-920F-A7C1EDF5185E},Delaware,Pennsylvania
-75.3734362436103,40.0440953525477,126,127,90512,Commuter Rail,Paoli/Thorndale Line,St. Davids,SEPTA,{4BD3DDC4-A171-4F03-9374-8EB7CB7CEB8D},Delaware,Pennsylvania
-75.2498430995888,39.9898840810164,116,117,90522,Commuter Rail,Paoli/Thorndale Line,Overbrook,SEPTA,{AA230F39-C042-4CEA-B280-7E4BF611C2EA},Philadelphia,Pennsylvania
-75.4111576471115,39.9078521407117,56,57,90301,Commuter Rail,Media/Elwyn Line,Elwyn,SEPTA,{378DAECA-5DAC-4CEF-9C86-71955A7F9D67},Delaware,Pennsylvania
-75.3335501216746,39.9287470052311,237,238,0,Surface Trolley,Route 101 Trolley,Saxer Avenue,SEPTA,{BF47A0C6-B12B-43CF-B7AF-B6430A66885B},Delaware,Pennsylvania
-75.0120496329849,40.1306248556254,122,123,90321,Commuter Rail,West Trenton Line,Somerton,SEPTA,{E903EC76-3E66-43E2-8ADA-D94A19716549},Philadelphia,Pennsylvania
-75.3159917531357,39.9471760637909,232,233,0,Surface Trolley,Route 101 Trolley,Drexelbrook,SEPTA,{CBEA0AA0-BCD0-4141-A737-A5FD7EBF789F},Delaware,Pennsylvania
-75.6217572440421,40.0194311796835,318,319,0,Intercity Passenger Rail,Amtrak (Multiple Routes),Exton,Amtrak,{F9408DB9-DE02-47DD-A6DF-4164F2B0CE17},Chester,Pennsylvania
-75.0130562746818,40.0089333296625,296,297,0,Light Rail,RiverLine,Riverton,NJ Transit,{ED0CD6C3-561A-4D99-A1AD-F1DC09F617C8},Burlington,New Jersey
-75.1512005835712,40.009264526683,195,196,0,Subway,Broad Street Line,Erie,SEPTA,{CCC7EAD2-3AC9-43B4-BFF9-B20BBEC5C575},Philadelphia,Pennsylvania
-75.1949197446196,40.0574664872217,104,105,90804,Commuter Rail,Chestnut Hill West Line,Allen Lane,SEPTA,{5953EEDE-C3B6-4EC2-9E3E-D9F46EA243B6},Philadelphia,Pennsylvania
-75.2540989293308,40.2684785001284,23,24,90533,Commuter Rail,Lansdale/Doylestown Line,Colmar,SEPTA,{B00E612B-7432-445F-9A48-80A50B2BAD2D},Montgomery,Pennsylvania
-75.1695149115393,40.1120890334093,78,79,90523,Commuter Rail,Lansdale/Doylestown Line,North Hills,SEPTA,{0828223A-70C2-4AB6-99C8-E327A92C9BFB},Montgomery,Pennsylvania
-75.7527272946802,39.6701966398285,328,328,90201,Commuter Rail,Wilmington/Newark Line,Newark,SEPTA,{81A95FED-CB45-46ED-A181-7BA3820484CA},Bucks,Delaware
-75.348176272292,40.1048761079587,267,268,0,Rapid Transit,Norristown High Speed Line,Bridgeport,SEPTA,{298CA779-75E1-4D86-938E-FE38EF0D9885},Montgomery,Pennsylvania
-75.3489040471526,40.0812391906032,250,251,0,Rapid Transit,Norristown High Speed Line,Hughes Park,SEPTA,{AFFB2D28-0DCD-495F-BF7D-AE0E53019743},Montgomery,Pennsylvania
-75.1291211112315,40.059499019458,128,129,90408,Commuter Rail,Glenside Combined,Melrose Park,SEPTA,{5E57245C-3AC4-43E2-82BC-66108A96319B},Montgomery,Pennsylvania
-75.2114604336285,40.1352668159431,76,77,90525,Commuter Rail,Lansdale/Doylestown Line,Fort Washington,SEPTA,{86A07A77-BD5F-4715-B3DC-9E7C3A024109},Montgomery,Pennsylvania
-75.1342182461107,40.12084636483,86,87,90413,Commuter Rail,Warminster Line,Roslyn,SEPTA,{52134849-72D7-4CA4-8FE2-EEED21025F81},Montgomery,Pennsylvania
-75.3000703659248,40.0140201581337,3,3,90517,Commuter Rail,Paoli/Thorndale Line,Haverford,SEPTA,{968F86DB-AA94-4E50-A7FB-D74151B003B5},Montgomery,Pennsylvania
-75.3158781591504,40.0219106066035,2,2,90516,Commuter Rail,Paoli/Thorndale Line,Bryn Mawr,SEPTA,{34721152-D2B9-49EF-88B0-CD2A28032620},Montgomery,Pennsylvania
-75.3453154339417,40.1133279321946,266,267,0,Rapid Transit,Norristown High Speed Line,Norristown Transportation Center,SEPTA,{3B1F8662-4DFC-4F19-911F-58060661E9BF},Montgomery,Pennsylvania
-75.4522176069184,39.797653848203,330,327,90204,Commuter Rail,Wilmington/Newark Line,Claymont,SEPTA,{78B6DD71-E04A-4D43-B119-52FCB85ADBEB},Bucks,Delaware
-75.068722536974,40.116534880105,91,92,90318,Commuter Rail,West Trenton Line,Bethayres,SEPTA,{B2F34BFE-305D-4565-8347-097FD5AB6BCC},Montgomery,Pennsylvania
-74.8309532768255,40.235058931689,39,40,90326,Commuter Rail,West Trenton Line,Yardley,SEPTA,{85ACDB97-2F29-4320-BF87-FC5E65E6BF37},Bucks,Pennsylvania
-74.8546415498254,40.1050370328575,41,42,90703,Commuter Rail,Trenton Line,Bristol,SEPTA,{2F4DEAD3-8EF4-4FD2-93F5-828C97AAC9E1},Bucks,Pennsylvania
-75.1143707016867,40.143693344603,83,84,90415,Commuter Rail,Warminster Line,Willow Grove,SEPTA,{09DD2155-902E-4710-99B1-C9E472AD469B},Montgomery,Pennsylvania
-75.2860655130611,40.0742262098968,121,122,90224,Commuter Rail,Manayunk/Norristown Line,Spring Mill,SEPTA,{CB31ABA2-4784-4D2A-931D-BE157A85E5B8},Montgomery,Pennsylvania
-75.5509358806406,39.7369600081868,327,330,90203,Commuter Rail,Wilmington/Newark Line,Wilmington,SEPTA,{6931521F-8E7A-44DB-8E92-D12921AA5643},Bucks,Delaware
-75.2439487079393,40.1697032797206,74,75,90527,Commuter Rail,Lansdale/Doylestown Line,Penllyn,SEPTA,{D11C595D-1D35-41BE-8F7A-97585A431A96},Montgomery,Pennsylvania
-75.1025405130588,40.1764188433135,82,83,90416,Commuter Rail,Warminster Line,Hatboro,SEPTA,{17AF8279-6BA8-44CB-A206-BCB15B75E50D},Montgomery,Pennsylvania
-74.9065754762155,40.093575371388,42,43,90704,Commuter Rail,Trenton Line,Croydon,SEPTA,{A30CC2B1-F44D-40C5-8739-F0D938C5E1F6},Bucks,Pennsylvania
-75.3086703564998,40.0721378498158,94,95,90225,Commuter Rail,Manayunk/Norristown Line,Conshohocken,SEPTA,{F5B81537-66F0-40CD-898D-79EAF301E3C4},Montgomery,Pennsylvania
-75.2853402552149,40.2430469223379,25,26,90531,Commuter Rail,Lansdale/Doylestown Line,Lansdale,SEPTA,{6F09B36C-F3E8-48E6-8FF9-CD347982350D},Montgomery,Pennsylvania
-75.3486951363975,40.1170586070175,96,97,90227,Commuter Rail,Manayunk/Norristown Line,Main Street,SEPTA,{A704DF5A-DDBC-42D5-96C0-A58E4FEBE034},Montgomery,Pennsylvania
-75.3440958677242,40.1126950597308,95,96,90226,Commuter Rail,Manayunk/Norristown Line,Norristown Transportation Center,SEPTA,{86768A99-D9D2-4D7E-8885-85D2945C8C51},Montgomery,Pennsylvania
-75.3450604457252,40.1208347074603,114,115,90228,Commuter Rail,Manayunk/Norristown Line,Elm Street,SEPTA,{8655ADB8-2C60-445C-A157-8C40EEF4F660},Montgomery,Pennsylvania
-74.9337026825737,40.0829936965738,43,44,90705,Commuter Rail,Trenton Line,Eddington,SEPTA,{1C276571-5055-490D-9160-FB77574A4A11},Bucks,Pennsylvania
-75.2107052488803,40.2877589005333,33,34,90535,Commuter Rail,Lansdale/Doylestown Line,Chalfont,SEPTA,{C21E5384-BB29-429B-B90C-BF8C95BD7832},Bucks,Pennsylvania
-75.2045807323842,40.0657810280971,129,130,90803,Commuter Rail,Chestnut Hill West Line,St. Martins,SEPTA,{B1C5E200-23D4-44DB-87D8-260EA8D35BAB},Philadelphia,Pennsylvania
-75.2951642283138,39.9351442717568,201,202,0,Surface Trolley,Route 102 Trolley,Oakview,SEPTA,{A8629BAC-9ED7-4ABF-B446-73AC56724267},Delaware,Pennsylvania
-75.0391218182607,39.9934255511314,298,299,0,Light Rail,RiverLine,Pennsauken/Route 73,NJ Transit,{A141673D-B2E1-4079-AD79-C16FE10D2179},Camden,New Jersey
-75.2249181356625,40.0267715362736,113,114,90221,Commuter Rail,Manayunk/Norristown Line,Manayunk,SEPTA,{AE34F531-825E-4EA2-BF0D-82281C22995A},Philadelphia,Pennsylvania
-75.1210060261608,39.9456608390522,313,314,0,Rapid Transit,PATCO,City Hall,PATCO,{B8EFCE8F-E556-4600-9C7C-8FB5AE19748E},Camden,New Jersey
-75.6217572440421,40.0194311796835,46,47,90504,Commuter Rail,Paoli/Thorndale Line,Exton,SEPTA,{ACD08C63-F4D5-48EF-83C1-F86B1AA80896},Chester,Pennsylvania
-75.2926884790847,39.9470590780611,228,229,0,Surface Trolley,Route 101 & 102 Trolley Lines,Drexel Hill Junction,SEPTA,{885AA057-E56C-4F5E-AB60-F193F944B19D},Delaware,Pennsylvania
-75.266497207688,39.9588687560591,238,239,0,Surface Trolley,Route 101 & 102 Trolley Lines,Walnut Street,SEPTA,{4BAEC4F8-9822-43E4-889A-FD126860DF76},Delaware,Pennsylvania
-75.1202999984649,39.9431661159655,277,278,0,Light Rail,RiverLine,Walter Rand Transportation Center,NJ Transit,{7B713F76-49C2-43B0-A8A8-EBC2119B920A},Camden,New Jersey
-75.1446820690336,40.0390696949399,198,199,0,Subway,Broad Street Line,Olney Transportation Center,SEPTA,{B213949A-A0D7-46BF-A6BE-87AFFAD3AA29},Philadelphia,Pennsylvania
-74.659429657129,40.3435153256392,282,283,0,Commuter Rail,Northeast Corridor,Princeton,NJ Transit,{074E03D6-435A-4397-B25E-545EAE98BC74},Mercer,New Jersey
-75.1902049918305,40.042413026972,106,107,90806,Commuter Rail,Chestnut Hill West Line,Upsal,SEPTA,{FDF7B5DB-474C-4046-99D7-518D8F5BE7C6},Philadelphia,Pennsylvania
-75.1236528099255,40.0327721444643,133,134,90811,Commuter Rail,Fox Chase Line,Olney,SEPTA,{A06855B9-7602-44B9-8630-3EA4E0BB5763},Philadelphia,Pennsylvania
-75.3807186467047,39.916720209531,244,245,0,Surface Trolley,Route 101 Trolley,Bowling Green,SEPTA,{2D487CD3-BCCF-4A2E-906F-070E42CA73E4},Delaware,Pennsylvania
-75.2084931099622,40.0762414046827,102,103,90801,Commuter Rail,Chestnut Hill West Line,Chestnut Hill West,SEPTA,{7907C30B-42FF-4FFF-BE4A-B6F3D09F6388},Philadelphia,Pennsylvania
-75.1492977320155,40.0179678400113,196,197,0,Subway,Broad Street Line,Hunting Park,SEPTA,{0FF1B810-68C3-4764-AAED-124C4FF24F7F},Philadelphia,Pennsylvania
-74.9151576158279,40.0611629512259,293,294,0,Light Rail,RiverLine,Beverly/Edgewater Park,NJ Transit,{048FD7D8-9F02-437D-B3D9-9FBA44DE21E6},Burlington,New Jersey
-75.7628964204297,39.992772219231,125,126,90501,Commuter Rail,Paoli/Thorndale Line,Thorndale,SEPTA,{872D8862-E019-4886-944B-F5F8F320E712},Chester,Pennsylvania
-75.0467924233959,39.9071580956043,307,308,0,Rapid Transit,PATCO,Westmont,PATCO,{36453251-4574-4442-9B1A-156AA431AC22},Camden,New Jersey
-74.7538834309671,40.2185537371211,324,325,0,Intercity Passenger Rail,Amtrak (Multiple Routes),Trenton Transit Center,Amtrak,{26A5A46B-8F78-4243-87E1-CD5A07605038},Mercer,New Jersey
-75.3872111852137,40.0458389422907,53,54,90511,Commuter Rail,Paoli/Thorndale Line,Wayne,SEPTA,{55068628-78D1-43C0-BB05-4364A3B6866F},Delaware,Pennsylvania
-75.29004412027,39.9255059221269,204,205,0,Surface Trolley,Route 102 Trolley,Clifton-Aldan,SEPTA,{6D304A0B-9938-49C4-A552-1F2B79431068},Delaware,Pennsylvania
-75.1528737803745,40.0015994776737,194,195,0,Subway,Broad Street Line,Allegheny,SEPTA,{8D99EC72-2D2B-4E53-9797-2DFF0355096F},Philadelphia,Pennsylvania
-75.2839733277025,39.9809574158449,263,264,0,Rapid Transit,Norristown High Speed Line,Penfield,SEPTA,{C36ABA16-3046-4B38-B04A-4B3E70122741},Delaware,Pennsylvania
-75.1822544237144,39.9566448041891,29,30,90004,Commuter Rail,SEPTA Main Line,30th Street Station,SEPTA,{0687EB29-7C97-4249-93BF-169C5C3DA705},Philadelphia,Pennsylvania
-75.0005070936955,39.8338429469934,311,312,0,Rapid Transit,PATCO,Lindenwold,PATCO,{C0E94337-D07A-4BDB-B3DA-AB3A76B5C2C8},Camden,New Jersey
-75.0091871787178,39.8587101839953,310,311,0,Rapid Transit,PATCO,Ashland,PATCO,{3DA4F477-8EEE-4B6D-892D-B61B49FBF1FC},Camden,New Jersey
-74.8154936830646,40.2573167695761,20,21,90327,Commuter Rail,West Trenton Line,West Trenton,SEPTA,{A466ABA8-A425-4D5F-8444-EDD68BDC17EB},Mercer,New Jersey
-75.1582579550076,39.9516415183565,152,153,0,Subway-Elevated,Market/Frankford Line,11th Street,SEPTA,{48638192-7ED2-4AB0-B636-E4CCBCADAEA3},Philadelphia,Pennsylvania
-75.3594598226783,40.0447356009028,54,55,90513,Commuter Rail,Paoli/Thorndale Line,Radnor,SEPTA,{11D8CFBF-648D-49AE-9CC0-617C19F1B0CD},Delaware,Pennsylvania
-75.2018377547431,40.0774747943598,100,101,90719,Commuter Rail,Chestnut Hill East Line,Gravers Lane,SEPTA,{5920AB9B-E071-462C-8790-AB158B02F9AC},Philadelphia,Pennsylvania
-75.1604148445043,39.9670262276992,189,190,0,Subway,Broad Street Line,Fairmount,SEPTA,{90DD1541-0D1E-4912-B470-FFCC87712C8A},Philadelphia,Pennsylvania
-75.1715725029843,40.051108039411,149,150,90714,Commuter Rail,Chestnut Hill East Line,Washington Lane,SEPTA,{7C70DC42-867F-43DF-A9DC-6AB5F73DF21F},Philadelphia,Pennsylvania
-75.3422972541808,40.0386474247408,55,56,90514,Commuter Rail,Paoli/Thorndale Line,Villanova,SEPTA,{FFE30F1D-1247-4AAD-96B6-C14A0F8446D6},Delaware,Pennsylvania
-75.3153229974501,40.0100393045809,259,260,0,Rapid Transit,Norristown High Speed Line,Haverford,SEPTA,{D0038205-4A6D-4D03-B06A-2A52645F0BC6},Delaware,Pennsylvania
-75.2073275130351,40.0810414874251,101,102,90720,Commuter Rail,Chestnut Hill East Line,Chestnut Hill East,SEPTA,{7E936D0D-D804-4E3E-A0DB-D16262476381},Philadelphia,Pennsylvania
-75.2916180630531,39.9865975737465,262,263,0,Rapid Transit,Norristown High Speed Line,Beechwood-Brookline,SEPTA,{B97735F8-E753-4385-B6F8-8EC9529879AC},Delaware,Pennsylvania
-75.2977587655391,39.9475513428689,229,230,0,Surface Trolley,Route 101 Trolley,Huey Avenue,SEPTA,{2EB77545-168A-4C66-B398-B58A8F3D324F},Delaware,Pennsylvania
-75.2729116461325,39.9559157496316,222,223,0,Surface Trolley,Route 101 & 102 Trolley Lines,Hilltop Road,SEPTA,{049596EF-CA00-40E6-9027-ABDCB7388449},Delaware,Pennsylvania
-75.1478556230973,40.0245622800052,197,198,0,Subway,Broad Street Line,Wyoming,SEPTA,{616FB6B2-8856-464B-9FA4-FA7119DCFF73},Philadelphia,Pennsylvania
-75.1670116332637,39.9483796329367,302,303,0,Rapid Transit,PATCO,15th-16th & Locust Street,PATCO,{0A925144-7D53-45E4-8D18-2A7F2F566B22},Philadelphia,Pennsylvania
-75.2982074111104,39.9217632514126,135,136,90308,Commuter Rail,Media/Elwyn Line,Primos,SEPTA,{363D0A73-A3FE-4C49-8E35-78042409353B},Delaware,Pennsylvania
-75.1539587977834,39.9966279850356,193,194,0,Subway,Broad Street Line,North Philadelphia,SEPTA,{1CE8A1BD-A240-4CF2-954D-D112EDDBDBE1},Philadelphia,Pennsylvania
-74.9588839410908,40.039249990755,284,285,0,Light Rail,RiverLine,Riverside,NJ Transit,{D586A63E-A197-4785-BE92-1FB64DC38C96},Burlington,New Jersey
-75.1466853560964,40.0299127023833,180,181,0,Subway,Broad Street Line,Logan,SEPTA,{C52B87A5-532B-4F8C-A691-C516F5A2383B},Philadelphia,Pennsylvania
-75.341719585617,39.8573852617183,63,64,90208,Commuter Rail,Wilmington/Newark Line,Eddystone,SEPTA,{8E9C5C70-BB26-4DDA-A328-AA8D6AB713DA},Delaware,Pennsylvania
-75.3489838567332,39.9181271138476,215,216,0,Surface Trolley,Route 101 Trolley,Springfield Mall,SEPTA,{728BF7F5-AFCF-4E01-A5F9-ABA289F6E5EE},Delaware,Pennsylvania
-75.2842217735687,39.914602067727,209,210,0,Surface Trolley,Route 102 Trolley,Bartram Avenue,SEPTA,{C5800E28-C95C-4B45-B4E2-F38A982605FA},Delaware,Pennsylvania
-75.2140078009383,39.9586666154279,158,159,0,Subway-Elevated,Market/Frankford Line,46th Street,SEPTA,{2BA67503-CD6A-4347-BEEF-0FA3D94485D8},Philadelphia,Pennsylvania
-75.1811429758277,40.0299803270381,108,109,90808,Commuter Rail,Chestnut Hill West Line,Chelten Avenue,SEPTA,{FCDFCF60-7B71-47FD-B66D-8ED4FA62DBB1},Philadelphia,Pennsylvania
-75.1614208198189,39.962417763434,188,189,0,Subway,Broad Street Line,Spring Garden,SEPTA,{DA1832D6-4F26-4C7D-BB35-2C3C2D5EF4D1},Philadelphia,Pennsylvania
-75.4229728641,40.0473692680207,51,52,90509,Commuter Rail,Paoli/Thorndale Line,Devon,SEPTA,{F8A1397C-5F9B-488B-919E-E8F78F4F4485},Chester,Pennsylvania
-75.1436651037655,39.9498000934994,175,176,0,Subway-Elevated,Market/Frankford Line,2nd Street,SEPTA,{B39EED86-7F80-4B89-A2B9-0F027F64BB62},Philadelphia,Pennsylvania
-75.1368235527502,40.0418298569273,199,200,0,Subway,Broad Street Line,Fern Rock Transportation Center,SEPTA,{2F20EA3C-83E6-4ED1-B231-0650C21EA81A},Philadelphia,Pennsylvania
-75.3407649720467,40.0326902184711,255,256,0,Rapid Transit,Norristown High Speed Line,Stadium (Ithan Avenue),SEPTA,{5E57E54D-EF4F-4E3A-A1E8-085BE1CBD309},Delaware,Pennsylvania
-75.1284937392244,39.9408821611608,280,281,0,Light Rail,RiverLine,Entertainment Center,NJ Transit,{42DF033F-F859-436F-B23B-214B6FB31FBB},Camden,New Jersey
-75.369971588576,39.9149637247397,217,218,0,Surface Trolley,Route 101 Trolley,Pine Ridge,SEPTA,{C82A5EE3-24C7-4CC2-BF15-8388DB72DE1B},Delaware,Pennsylvania
-74.907609042836,39.7835607194141,275,276,0,Commuter Rail,Atlantic City Line,Atco,NJ Transit,{783C971F-CFBE-4D77-B8E0-8ED6B89C7903},Camden,New Jersey
-75.062003647249,39.9778978927686,299,300,0,Commuter Rail,Atlantic City Line,Pennsauken Transit Center,NJ Transit,{01A93325-7009-4CE5-92EF-6516C80D88C1},Camden,New Jersey
-75.2416581873523,39.8773195952718,140,141,90402,Commuter Rail,Airport Line,Airport Terminal C & D,SEPTA,{B5FBC0E2-33AC-43D2-A689-7DED667D125D},Philadelphia,Pennsylvania
-75.1565853974728,39.9972228982557,142,143,90810,Commuter Rail,Chestnut Hill West Line,North Philadelphia,SEPTA,{F467D78C-9FE8-4959-AF5F-D1C504F853F6},Philadelphia,Pennsylvania
-75.1134266162525,39.9964885470558,169,170,0,Subway-Elevated,Market/Frankford Line,Allegheny,SEPTA,{951AAD45-777F-4361-8901-D16F4DF0A9C4},Philadelphia,Pennsylvania
-75.3876015022744,39.9176671557468,247,248,0,Surface Trolley,Route 101 Trolley,Monroe Street,SEPTA,{2315D3E6-27A2-4CD8-8B10-3E7967E0EC84},Delaware,Pennsylvania
-74.6241020354391,40.3160270364101,272,273,0,Commuter Rail,Northeast Corridor,Princeton Junction,NJ Transit,{79D39F84-5B60-41BA-A44B-AFA51CEFA759},Mercer,New Jersey
-75.3535872182436,40.0420103970316,253,254,0,Rapid Transit,Norristown High Speed Line,Radnor,SEPTA,{E4D8C509-C540-4186-8708-5DA9352BBF33},Delaware,Pennsylvania
-75.0890847697269,40.010422662145,166,167,0,Subway-Elevated,Market/Frankford Line,Church,SEPTA,{1F48168D-211F-41B7-A76E-DD7DBBB42366},Philadelphia,Pennsylvania
-75.2277475837039,40.0010290668565,8,8,90002,Commuter Rail,Cynwyd Line,Bala,SEPTA,{405EF532-64C7-4934-85FC-29D8D2CE04A7},Montgomery,Pennsylvania
-75.3520513374216,40.0988566624645,268,269,0,Rapid Transit,Norristown High Speed Line,DeKalb Street,SEPTA,{CADC3603-AE8F-4929-ADF0-540195AA948D},Montgomery,Pennsylvania
-75.2958784127872,39.9441116601382,241,242,0,Surface Trolley,Route 102 Trolley,Garretford,SEPTA,{38D5E473-F7FA-46DB-AFFA-8673297C35C6},Delaware,Pennsylvania
-75.3716048726029,39.9037480406354,59,60,90304,Commuter Rail,Media/Elwyn Line,Wallingford,SEPTA,{E7ECA2CC-7D62-4C9C-94C7-F41EC81965DF},Delaware,Pennsylvania
-75.3302926493911,40.0214259572387,257,258,0,Rapid Transit,Norristown High Speed Line,Roberts Road,SEPTA,{50BB80D5-1B93-4A41-A1D9-B2EE2BA309E0},Delaware,Pennsylvania
-75.1653126250559,39.9526048568979,154,155,0,Subway-Elevated,Market/Frankford Line,15th Street,SEPTA,{33BA0027-8222-4388-AE5B-B50227DE20D0},Philadelphia,Pennsylvania
-75.2825217354844,39.951619490631,225,226,0,Surface Trolley,Route 101 & 102 Trolley Lines,Lansdowne Avenue,SEPTA,{6F7B9DAD-171F-4EE0-BEBC-071210160A72},Delaware,Pennsylvania
-75.4037376314965,40.0497124896505,52,53,90510,Commuter Rail,Paoli/Thorndale Line,Strafford,SEPTA,{A7EE0B39-E287-4267-93F0-30A899C4923E},Chester,Pennsylvania
-75.169694206069,39.9243903260917,184,185,0,Subway,Broad Street Line,Snyder,SEPTA,{7C23541A-EAB3-466F-B403-3AC0DB1DBE8C},Philadelphia,Pennsylvania
-75.2446426265285,39.8764224299573,139,140,90403,Commuter Rail,Airport Line,Airport Terminal B,SEPTA,{DFF8F4C6-7ED8-4A42-A674-AECFE353D650},Philadelphia,Pennsylvania
-75.1063668394238,40.0003621122436,168,169,0,Subway-Elevated,Market/Frankford Line,Tioga,SEPTA,{979781E7-A2C3-49E5-8342-B7328A04D3B8},Philadelphia,Pennsylvania
-75.3259511984393,39.9408229836848,234,235,0,Surface Trolley,Route 101 Trolley,Scenic Road,SEPTA,{734DB89D-55FA-4212-BCC2-F31AF7F6B0B9},Delaware,Pennsylvania
-75.0005070936955,39.8338429469934,281,282,0,Commuter Rail,Atlantic City Line,Lindenwold,NJ Transit,{E23963B9-DEA8-4B01-A625-A42B68BE35AB},Camden,New Jersey
-75.1535773763523,39.9509596299896,312,313,0,Rapid Transit,PATCO,8th & Market Street,PATCO,{54194A0F-690B-47EB-9BF0-709B7C1D3A24},Philadelphia,Pennsylvania
-75.3060979927603,39.9492715758378,231,232,0,Surface Trolley,Route 101 Trolley,Aronimink,SEPTA,{A2E80876-A535-4F63-B002-5A4EA3FE0D7F},Delaware,Pennsylvania
-75.3219289178278,39.8806229867205,65,66,90210,Commuter Rail,Wilmington/Newark Line,Ridley Park,SEPTA,{35697B28-5DEA-48A0-81F5-EDC84D59A856},Delaware,Pennsylvania
-75.1222737710923,39.9916236759407,170,171,0,Subway-Elevated,Market/Frankford Line,Somerset,SEPTA,{AAF54BFA-C610-4E92-BCDC-C1C13815B04A},Philadelphia,Pennsylvania
-75.1671274806144,39.9362020745104,185,186,0,Subway,Broad Street Line,Ellsworth-Federal,SEPTA,{3A12033F-96F1-4590-9D00-FB1E2598784F},Philadelphia,Pennsylvania
-75.3373095629562,39.9262766674345,213,214,0,Surface Trolley,Route 101 Trolley,Leamy Avenue,SEPTA,{1B45D301-909C-4FC9-A7DF-57D990BB36ED},Delaware,Pennsylvania
-75.3309607994985,39.8718702685891,64,65,90209,Commuter Rail,Wilmington/Newark Line,Crum Lynne,SEPTA,{C02F11E8-0138-44AC-8C10-73248D8E182B},Delaware,Pennsylvania
-75.329552395699,39.9344883754885,235,236,0,Surface Trolley,Route 101 Trolley,Springfield Road,SEPTA,{ACD63BD2-3948-4730-9FDB-389FE437CA0F},Delaware,Pennsylvania
-75.2965024702067,39.9402160543975,200,201,0,Surface Trolley,Route 102 Trolley,Marshall Road,SEPTA,{980DE163-441F-4C1D-81FC-B36E22B86485},Delaware,Pennsylvania
-75.1731899853454,39.9053574950533,182,183,0,Subway,Broad Street Line,AT&T Station,SEPTA,{D75AE14D-1F39-44D1-9D51-1F99E719AB3D},Philadelphia,Pennsylvania
-75.0437958173473,40.1219083836688,92,93,90319,Commuter Rail,West Trenton Line,Philmont,SEPTA,{5AA015B6-D288-430D-9FEF-8DEE11133711},Montgomery,Pennsylvania
-75.1186490101595,40.133272513279,85,86,90414,Commuter Rail,Warminster Line,Crestmont,SEPTA,{D1E143B0-AEA5-48F7-8220-E92C8A392F99},Montgomery,Pennsylvania
-74.9522446938271,40.0717791692328,124,125,90706,Commuter Rail,Trenton Line,Cornwells Heights,SEPTA,{A0FB9A07-0D8B-4D54-AC08-01F0F4158D20},Bucks,Pennsylvania
-75.1617899254515,40.2972372201585,31,32,90537,Commuter Rail,Lansdale/Doylestown Line,Delaware Valley College,SEPTA,{0994A83F-0A78-450A-B1F9-920DFF4E37B3},Bucks,Pennsylvania
-74.9827546089801,40.1401402794803,35,36,90322,Commuter Rail,West Trenton Line,Trevose,SEPTA,{4EB2434A-BF7D-4E6C-B0B1-01B3CD7B9985},Bucks,Pennsylvania
-75.2637851738635,39.9607435288145,220,221,0,Surface Trolley,Route 101 & 102 Trolley Lines,Fairfield Avenue,SEPTA,{351BC35C-D93C-4955-BADB-36C79248DC7C},Delaware,Pennsylvania
-75.2248799187035,39.9599974559962,161,162,0,Subway-Elevated,Market/Frankford Line,52nd Street,SEPTA,{E0C9AAAB-B217-4C52-8C48-C28129A5D18A},Philadelphia,Pennsylvania
-75.9223712744874,39.9593171622498,315,316,0,Intercity Passenger Rail,Amtrak (Keystone),Parkesburg,Amtrak,{14E83DF6-5F9F-4D6C-961C-8EADEDDCBD77},Chester,Pennsylvania
-75.3910813010739,39.9181529937179,249,250,0,Surface Trolley,Route 101 Trolley,Olive Street,SEPTA,{7DCDC247-4FF6-419A-ADB0-87326A4C7194},Delaware,Pennsylvania
-75.1362020817237,39.9689228296898,173,174,0,Subway-Elevated,Market/Frankford Line,Girard,SEPTA,{DC76269F-EAA2-438A-BAB0-E31AA38E3516},Philadelphia,Pennsylvania
-75.8210025621888,39.9859431389237,316,317,0,Intercity Passenger Rail,Amtrak (Keystone),Coatesville,Amtrak,{30C21B8B-8F3C-4BDE-B5E5-3B0A0BA0CD79},Chester,Pennsylvania
-75.2467339510818,39.8760036831769,138,139,90404,Commuter Rail,Airport Line,Airport Terminal A,SEPTA,{943FB0C4-6DFA-4F64-97AB-104CC109F0CE},Philadelphia,Pennsylvania
-75.148948934475,39.9504875958743,176,177,0,Subway-Elevated,Market/Frankford Line,5th Street,SEPTA,{DCD5CDAB-990D-4ED0-8FDA-86A22F5FF1D9},Philadelphia,Pennsylvania
-75.1914803689993,39.9558599408533,156,157,0,Subway-Elevated,Market/Frankford Line,34th Street,SEPTA,{842397B6-E144-41B2-B1A5-A4B239AD0CC6},Philadelphia,Pennsylvania
-75.1626007026249,39.9570073678185,187,188,0,Subway,Broad Street Line,Race-Vine,SEPTA,{ED81DCBB-70E7-4692-A543-AC3B24231EB7},Philadelphia,Pennsylvania
-75.2525542515523,39.9644632533978,160,161,0,Subway-Elevated,Market/Frankford Line,Millbourne,SEPTA,{0055C40B-860E-4F63-94D9-B2BA9D3D5FD1},Delaware,Pennsylvania
-74.7702552291577,40.1169428151143,289,290,0,Light Rail,RiverLine,Roebling,NJ Transit,{E24D9CB8-68F9-457A-8506-5881EB6C8401},Burlington,New Jersey
-75.1287356006973,39.9456365068795,279,280,0,Light Rail,RiverLine,Aquarium,NJ Transit,{F96ED62E-63DA-4E76-90BF-018734BEEA49},Camden,New Jersey
-75.5155792212421,40.0364450325167,47,48,90505,Commuter Rail,Paoli/Thorndale Line,Malvern,SEPTA,{3BC9A9BB-EBA5-424E-8C88-5F30870BE315},Chester,Pennsylvania
-75.061996237806,39.9782883407635,300,301,0,Light Rail,RiverLine,Pennsauken Transit Center,NJ Transit,{8C6DFDFB-8343-46F2-B0A0-4B3B2355928B},Camden,New Jersey
-75.3396367700088,39.9247618054433,214,215,0,Surface Trolley,Route 101 Trolley,Woodland Avenue,SEPTA,{7CA02D64-9453-4853-AFC7-E0D1F020D710},Delaware,Pennsylvania
-75.3600691255614,39.8494803252821,62,63,90207,Commuter Rail,Wilmington/Newark Line,Chester Transportation Center,SEPTA,{52421259-FC75-4A17-865B-D287B8A29867},Delaware,Pennsylvania
-75.0368451676636,39.8973987748692,308,309,0,Rapid Transit,PATCO,Haddonfield,PATCO,{3D483D93-34CB-444C-A08F-56FA167B69E3},Camden,New Jersey
-75.1600417306795,40.0225080862436,131,132,90009,Commuter Rail,SEPTA Main Line,Wayne Junction,SEPTA,{0CBF1104-69A7-4306-83F7-36D461FE999E},Philadelphia,Pennsylvania
-75.38810170124,39.9058510100767,58,59,90303,Commuter Rail,Media/Elwyn Line,Moylan-Rose Valley,SEPTA,{80CE869D-DF38-49F9-B1E1-85627F26EF1C},Delaware,Pennsylvania
-75.0390238878196,40.0232259250954,13,13,90709,Commuter Rail,Trenton Line,Tacony,SEPTA,{1E36072B-3CE5-486B-9B3E-FF685D04DE81},Philadelphia,Pennsylvania
-75.078064550707,40.0229160136978,150,151,0,Subway-Elevated,Market/Frankford Line,Frankford Transportation Center,SEPTA,{6A5F347E-99A5-4F49-8A42-DF1B1F9965DA},Philadelphia,Pennsylvania
-75.1673386259548,39.9541969946567,27,28,90005,Commuter Rail,SEPTA Main Line,Suburban Station,SEPTA,{601A8C2F-4207-4F13-8DBB-D7D5AA2226C3},Philadelphia,Pennsylvania
-75.2870198620617,39.9497399027389,226,227,0,Surface Trolley,Route 101 & 102 Trolley Lines,Drexel Park,SEPTA,{C57150E2-4F93-4EE7-9430-93C9746FCB7B},Delaware,Pennsylvania
-75.6384404326959,40.0147123685559,45,46,90503,Commuter Rail,Paoli/Thorndale Line,Whitford,SEPTA,{5539826C-B70B-48B3-9700-FE3672C2CB2D},Chester,Pennsylvania
-75.2558295202035,39.9397224510756,71,72,90312,Commuter Rail,Media/Elwyn Line,Fernwood-Yeadon,SEPTA,{929C62FD-50D6-4440-8861-4BED0FE4CB70},Delaware,Pennsylvania
-75.2355024768907,40.0341328384465,130,131,90222,Commuter Rail,Manayunk/Norristown Line,Ivy Ridge,SEPTA,{07A027A5-8FFD-4788-8911-85B172EF4AE9},Philadelphia,Pennsylvania
-75.1654004664085,39.9441472658145,186,187,0,Subway,Broad Street Line,Lombard-South,SEPTA,{B0C6990C-7016-41E2-9E34-886CAE37A37E},Philadelphia,Pennsylvania
-75.1788073911463,40.0605440954115,84,85,90715,Commuter Rail,Chestnut Hill East Line,Stenton,SEPTA,{274AC858-7F48-48FD-A8EA-553F8803EAC7},Philadelphia,Pennsylvania
-75.2897903194883,39.9232309050207,205,206,0,Surface Trolley,Route 102 Trolley,Shisler Avenue,SEPTA,{9D8E5C1B-44BD-446C-8079-2145E4A312BA},Delaware,Pennsylvania
-74.9999751419577,40.0166172080342,295,296,0,Light Rail,RiverLine,Cinnaminson,NJ Transit,{6C80B06F-638F-47A3-B42F-887FD78F32AD},Burlington,New Jersey
-75.3094879699164,39.999971045411,260,261,0,Rapid Transit,Norristown High Speed Line,Ardmore Avenue,SEPTA,{6F67DE45-9649-4457-AC01-EB3DF40A1AA5},Delaware,Pennsylvania
-75.2466916656685,39.9627116972439,165,166,0,Subway-Elevated,Market/Frankford Line,63rd Street,SEPTA,{F7378B29-455E-42E3-9730-D2523CE6203C},Philadelphia,Pennsylvania
-75.1320292565585,39.9854455413702,162,163,0,Subway-Elevated,Market/Frankford Line,York-Dauphin,SEPTA,{B350E8B6-EABA-4A0A-9B18-489822FFCCA3},Philadelphia,Pennsylvania
-75.3930102748991,39.9184205321553,242,243,0,Surface Trolley,Route 101 Trolley,Orange Street,SEPTA,{43B392A1-47FB-4F75-A8D5-8B1CD58594FF},Delaware,Pennsylvania
-75.161436459344,39.9521240663662,153,154,0,Subway-Elevated,Market/Frankford Line,13th Street,SEPTA,{C6AA4439-6FCB-4587-8265-A9CEA5EDEE73},Philadelphia,Pennsylvania
-75.1643903915768,39.9487932891777,178,179,0,Subway,Broad Street Line,Walnut-Locust,SEPTA,{0FC84B15-A523-4386-9BD5-417300A31322},Philadelphia,Pennsylvania
-75.0791579576003,39.9613016051436,276,277,0,Light Rail,RiverLine,36th Street,NJ Transit,{942D8EF9-162F-45EC-BD49-272071CF2FD2},Camden,New Jersey
-75.2111044657546,40.0703058789327,103,104,90802,Commuter Rail,Chestnut Hill West Line,Highland,SEPTA,{AE0C3018-1E0F-4435-9F8D-756D6ED6B67D},Philadelphia,Pennsylvania
-75.2886164870454,39.921717775619,206,207,0,Surface Trolley,Route 102 Trolley,Providence Road,SEPTA,{ECD21B1C-6F36-4FE8-A749-CE06E1884330},Delaware,Pennsylvania
-75.0916697512652,39.9226852537648,305,306,0,Rapid Transit,PATCO,Ferry Avenue,PATCO,{B6882996-EEFF-4113-B6CA-F57A375619DE},Camden,New Jersey
-75.1796647487945,40.2974895120312,32,33,90536,Commuter Rail,Lansdale/Doylestown Line,New Britain,SEPTA,{A7E1DAF9-62C7-46B6-A213-B8019196C1C4},Bucks,Pennsylvania
-75.2248996717271,40.1536580369709,75,76,90526,Commuter Rail,Lansdale/Doylestown Line,Ambler,SEPTA,{EBF1EAE7-D66A-4E6B-9CDF-5A39676E62DC},Montgomery,Pennsylvania
-75.2664136520036,40.0585570497799,93,94,90223,Commuter Rail,Manayunk/Norristown Line,Miquon,SEPTA,{C935FFF6-F2DF-4D1E-A5F0-EAD590E46480},Montgomery,Pennsylvania
-75.1377791143996,40.0932206072887,80,81,90410,Commuter Rail,Glenside Combined,Jenkintown-Wyncote,SEPTA,{24EE88A9-3EEF-4E80-A87A-93A4DFAB81F6},Montgomery,Pennsylvania
-75.1276710296715,40.0712328023253,81,82,90409,Commuter Rail,Glenside Combined,Elkins Park,SEPTA,{04132055-83ED-4253-9C50-FDDAF6645D8C},Montgomery,Pennsylvania
-75.1245054928906,40.1043642474315,88,89,90315,Commuter Rail,West Trenton Line,Noble,SEPTA,{69393E63-D15B-4EAB-9EA7-BC4EA78BB018},Montgomery,Pennsylvania
-75.1537142924085,40.1013438809543,79,80,90411,Commuter Rail,Glenside Combined,Glenside,SEPTA,{B64D3F0B-E561-42DE-B432-5BA8934FD643},Montgomery,Pennsylvania
-75.0890975810596,40.1951158800849,34,35,90417,Commuter Rail,Warminster Line,Warminster,SEPTA,{17B1C0CC-B44D-41A4-A1C5-E7FB5AE56BA9},Bucks,Pennsylvania
-75.2731184761858,40.002825783473,5,5,90519,Commuter Rail,Paoli/Thorndale Line,Wynnewood,SEPTA,{3B2AB560-1837-4E93-B940-9EBEF506EBA1},Montgomery,Pennsylvania
-75.5509358806406,39.7369600081868,326,331,0,Intercity Passenger Rail,Amtrak (Multiple Routes),Wilmington,Amtrak,{985C1F18-2294-4F43-881E-447ACE9E83CD},Bucks,Delaware
-74.8170164356414,40.1402588397796,40,41,90702,Commuter Rail,Trenton Line,Levittown,SEPTA,{7C638D80-30D5-4F48-A17D-7CDFA9DB1914},Bucks,Pennsylvania
