"","X","Y","OBJECTID","DVRPC_ID","SEPTA_ID","TYPE","LINE","STATION","OPERATOR","GLOBALID","COUNTY","STATE"
"1",-75.2514669408948,39.9975426161699,7,7,90521,"Commuter Rail","Paoli/Thorndale Line","Merion","SEPTA","{3186790A-3294-451F-ACDF-090D405FF9FA}","Montgomery","Pennsylvania"
"2",-75.6731331128948,39.6945095208242,329,329,90202,"Commuter Rail","Wilmington/Newark Line","Churchmans Crossing","SEPTA","{9C868F4B-17E8-438F-9617-C9727F31955F}","Bucks","Delaware"
"3",-74.9131128490098,40.1606387748682,37,38,90324,"Commuter Rail","West Trenton Line","Langhorne","SEPTA","{404AE6A0-A2F6-4B83-908D-121ACB476B60}","Bucks","Pennsylvania"
"4",-75.2467568448367,40.2738582957872,22,23,90534,"Commuter Rail","Lansdale/Doylestown Line","Link Belt","SEPTA","{A8B80E47-A41A-43AB-9A60-93596A693884}","Montgomery","Pennsylvania"
"5",-75.092516578274,40.1113787342745,90,91,90317,"Commuter Rail","West Trenton Line","Meadowbrook","SEPTA","{7B08E211-B87A-4C47-B5B2-7F1A275A4CC4}","Montgomery","Pennsylvania"
"7",-75.3272363707178,40.0281871075796,1,1,90515,"Commuter Rail","Paoli/Thorndale Line","Rosemont","SEPTA","{2435CD57-7095-4BE5-96A7-BCC32220D0EE}","Montgomery","Pennsylvania"
"8",-75.2569411832391,40.1848393583399,73,74,90528,"Commuter Rail","Lansdale/Doylestown Line","Gwynedd Valley","SEPTA","{F52F9F63-FB36-4643-B4D5-8DEB55B51F49}","Montgomery","Pennsylvania"
"9",-75.2772583138996,40.2143533564909,72,73,90529,"Commuter Rail","Lansdale/Doylestown Line","North Wales","SEPTA","{E6D5278E-29A3-46FA-BEB3-CF6445C5EA78}","Montgomery","Pennsylvania"
"10",-74.9621398160401,40.1468380075433,36,37,90323,"Commuter Rail","West Trenton Line","Neshaminy Falls","SEPTA","{E2A8D981-4615-40B8-BC5F-D95AD65FDF25}","Bucks","Pennsylvania"
"12",-75.2903045117707,40.008426409257,4,4,90518,"Commuter Rail","Paoli/Thorndale Line","Ardmore","SEPTA","{356ACEBB-EDFF-4F1B-B77F-178E3AB39D67}","Montgomery","Pennsylvania"
"13",-75.2615403937932,40.0048660714119,6,6,90520,"Commuter Rail","Paoli/Thorndale Line","Narberth","SEPTA","{2F85F7C3-BCEC-4F0E-93B1-3139165FF656}","Montgomery","Pennsylvania"
"15",-75.1838403025825,40.118199587765,77,78,90524,"Commuter Rail","Lansdale/Doylestown Line","Oreland","SEPTA","{5A85B16F-BE4B-491B-8D51-A8DD6BC9CD01}","Montgomery","Pennsylvania"
"16",-75.2792626952436,40.2500088879188,331,332,0,"Commuter Rail","Lansdale/Doylestown Line","9th Street","SEPTA","{43167307-3589-436B-8EEB-6EA52397DF65}","Montgomery","Pennsylvania"
"17",-75.2901838606106,39.8962167445124,68,69,90213,"Commuter Rail","Wilmington/Newark Line","Glenolden","SEPTA","{CBA7AAEB-67BB-4715-AED3-AB1D67E9B7B2}","Delaware","Pennsylvania"
"19",-75.1852665461111,40.0628703718655,97,98,90716,"Commuter Rail","Chestnut Hill East Line","Sedgwick","SEPTA","{F2825FD2-48FF-43AE-BB6B-D0B9C4E6D8AE}","Philadelphia","Pennsylvania"
"23",-75.2545951686686,39.9129530555631,19,20,90217,"Commuter Rail","Wilmington/Newark Line","Darby","SEPTA","{D375B834-D1D6-481B-97A4-7B544B5EC6CE}","Delaware","Pennsylvania"
"26",-75.1916100134623,40.0509296467723,105,106,90805,"Commuter Rail","Chestnut Hill West Line","Carpenter Lane","SEPTA","{02C998E3-6B55-4A8A-A133-891DD77311BF}","Philadelphia","Pennsylvania"
"27",-75.3094537275173,39.8881192978912,66,67,90211,"Commuter Rail","Wilmington/Newark Line","Prospect Park","SEPTA","{DF9DC355-510F-428D-90B5-2EDD5FD05357}","Delaware","Pennsylvania"
"28",-75.0417014723931,39.9284539314443,274,275,0,"Commuter Rail","Atlantic City Line","Cherry Hill","NJ Transit","{4516D6F7-DDC1-4A73-94EB-E88C61BF6ABD}","Camden","New Jersey"
"30",-74.7538834309671,40.2185537371211,21,22,90701,"Commuter Rail","Trenton Line","Trenton Transit Center","SEPTA","{11AB8760-4FD1-415E-B522-354911565F68}","Mercer","New Jersey"
"31",-75.2903181878526,39.9266675411889,123,124,90309,"Commuter Rail","Media/Elwyn Line","Clifton-Aldan","SEPTA","{B6447A0C-3DB3-4411-A3DA-FFCD0FFC8ACD}","Delaware","Pennsylvania"
"33",-75.020738894972,40.1278793913035,10,10,90320,"Commuter Rail","West Trenton Line","Forest Hills","SEPTA","{AE192EF2-C66E-4943-8481-0280A959301A}","Philadelphia","Pennsylvania"
"35",-75.2714350145702,39.9373015038851,70,71,90311,"Commuter Rail","Media/Elwyn Line","Lansdowne","SEPTA","{2666B56E-EC4A-4F68-9E98-2A45CDF66353}","Delaware","Pennsylvania"
"36",-74.7538834309671,40.2185537371211,301,302,0,"Commuter Rail","Northeast Corridor","Trenton Transit Center","NJ Transit","{42542F52-BCCE-4504-9049-5C01BE886E15}","Mercer","New Jersey"
"42",-75.3930087321401,39.8337006220378,61,62,90206,"Commuter Rail","Wilmington/Newark Line","Highland Avenue","SEPTA","{3D6B61CD-9BA9-4E0F-B431-2DCFFD0E8803}","Delaware","Pennsylvania"
"43",-75.2383531605646,39.944919322447,136,137,90313,"Commuter Rail","Media/Elwyn Line","Angora","SEPTA","{C897A6CA-5C6B-4ECA-99BD-66B7A73A8F4F}","Philadelphia","Pennsylvania"
"47",-75.158373769851,39.9526490658717,28,29,90006,"Commuter Rail","SEPTA Main Line","Jefferson Station","SEPTA","{C8ADEE24-D532-4947-A3B9-768FF7801234}","Philadelphia","Pennsylvania"
"53",-75.2256715253874,39.9901518652751,115,116,90003,"Commuter Rail","Cynwyd Line","Wynnefield Avenue","SEPTA","{2ECC1978-2D33-4D97-87AE-8FDCFEA4B39F}","Philadelphia","Pennsylvania"
"57",-75.2164938704909,39.9436249353454,137,138,90314,"Commuter Rail","Media/Elwyn Line","49th Street","SEPTA","{966365CF-DB7F-4951-9D6A-00A2568AFA25}","Philadelphia","Pennsylvania"
"58",-75.4606083276577,40.0429468778936,49,50,90507,"Commuter Rail","Paoli/Thorndale Line","Daylesford","SEPTA","{50FD4E80-F3AB-4B52-ACEE-D35DB02D7AF3}","Chester","Pennsylvania"
"61",-74.9844980947949,40.0544313254664,11,11,90707,"Commuter Rail","Trenton Line","Torresdale","SEPTA","{C65E22C6-6989-4425-97B2-DA904D87FABF}","Philadelphia","Pennsylvania"
"62",-75.4196013000868,39.8216251345461,127,128,90205,"Commuter Rail","Wilmington/Newark Line","Marcus Hook","SEPTA","{5B06926A-74FF-4C9A-A1E1-C758B39DBFDD}","Delaware","Pennsylvania"
"63",-75.1615084337992,40.0361871518348,147,148,90712,"Commuter Rail","Chestnut Hill East Line","Wister","SEPTA","{0F6134BD-2982-4AEE-824A-9DAA44EE7F8B}","Philadelphia","Pennsylvania"
"68",-75.0867418560189,40.0636635066005,145,146,90814,"Commuter Rail","Fox Chase Line","Ryers","SEPTA","{FA950E60-37DE-40B3-8D41-ADB6338EF408}","Philadelphia","Pennsylvania"
"71",-74.7040509461458,40.2553574699359,285,286,0,"Commuter Rail","Northeast Corridor","Hamilton","NJ Transit","{32CBB247-08AE-4948-B766-93A4F8C9CD4B}","Mercer","New Jersey"
"72",-75.3508923408597,39.9023331821529,60,61,90305,"Commuter Rail","Media/Elwyn Line","Swarthmore","SEPTA","{22088964-7CD0-462A-A00D-DA482422D702}","Delaware","Pennsylvania"
"78",-75.4837576760284,40.0429565477667,48,49,90506,"Commuter Rail","Paoli/Thorndale Line","Paoli","SEPTA","{40476312-FC8B-4024-BFF7-3595C1F5EF61}","Chester","Pennsylvania"
"79",-75.1652554826157,40.003788771145,110,111,90218,"Commuter Rail","Manayunk/Norristown Line","Allegheny","SEPTA","{41749398-AFEB-4615-8CD2-BDB3B335D475}","Philadelphia","Pennsylvania"
"80",-75.4424787414358,40.0480950379547,50,51,80508,"Commuter Rail","Paoli/Thorndale Line","Berwyn","SEPTA","{BF8B65EE-A598-4AC1-8E99-7C9E9F56E272}","Chester","Pennsylvania"
"84",-75.0238556831701,40.0326493132799,12,12,90708,"Commuter Rail","Trenton Line","Holmesburg Junction","SEPTA","{A74411B7-A7BE-46EB-8D1A-EEE0C8E103A6}","Philadelphia","Pennsylvania"
"85",-75.2400740585771,39.8790205401037,141,142,90401,"Commuter Rail","Airport Line","Airport Terminal E & F","SEPTA","{EC27626B-317E-4D01-888B-B124B1046804}","Philadelphia","Pennsylvania"
"87",-75.309846961155,39.9157529904722,16,17,90307,"Commuter Rail","Media/Elwyn Line","Secane","SEPTA","{D4EA93B0-27B2-4C63-8024-D9DA0EC796E4}","Delaware","Pennsylvania"
"88",-75.1869409638346,40.0351218575776,107,108,90807,"Commuter Rail","Chestnut Hill West Line","Tulpehocken","SEPTA","{FBD8C4EE-F72E-4B90-A549-30E65F8C4929}","Philadelphia","Pennsylvania"
"90",-75.0698758587014,40.0107133384407,14,15,90710,"Commuter Rail","Trenton Line","Bridesburg","SEPTA","{8F6C1235-9057-416D-AE1B-3B748E7B7AC4}","Philadelphia","Pennsylvania"
"92",-75.1903272730018,39.947837077339,120,121,90406,"Commuter Rail","Glenside Combined","University City","SEPTA","{DF396181-064A-434D-940C-AB5EF30824ED}","Philadelphia","Pennsylvania"
"101",-75.0928488972257,40.0578721071681,144,145,90813,"Commuter Rail","Fox Chase Line","Cheltenham","SEPTA","{CE5259A0-E393-4E4D-BF40-EC06F0C124C1}","Philadelphia","Pennsylvania"
"104",-75.2650075455507,39.9080271449642,18,19,90216,"Commuter Rail","Wilmington/Newark Line","Curtis Park","SEPTA","{1B5F0A9B-488C-455A-A1CF-EEAD01A9AD86}","Delaware","Pennsylvania"
"105",-75.192063864192,40.0114202867759,111,112,90219,"Commuter Rail","Manayunk/Norristown Line","East Falls","SEPTA","{C3AFE841-F433-422F-91D0-6ABE730A679A}","Philadelphia","Pennsylvania"
"106",-75.2713079332722,39.9040961011564,17,18,90215,"Commuter Rail","Wilmington/Newark Line","Sharon Hill","SEPTA","{906A3291-A4AF-418E-ACDB-BDBF5E2EF936}","Delaware","Pennsylvania"
"108",-75.2101994271826,40.0165622630067,112,113,90220,"Commuter Rail","Manayunk/Norristown Line","Wissahickon Transportation Center","SEPTA","{3154FB05-4F00-4AF2-AA95-F10FD18CAF2E}","Philadelphia","Pennsylvania"
"109",-75.1544774219537,39.9942514180973,132,133,90008,"Commuter Rail","SEPTA Main Line","North Broad","SEPTA","{A4EA0713-F82E-49F6-A839-7CBC4730420B}","Philadelphia","Pennsylvania"
"110",-75.3021122904193,39.8912409506167,67,68,90212,"Commuter Rail","Wilmington/Newark Line","Norwood","SEPTA","{27AA23C0-2ED0-4C88-9D9A-C219657397EB}","Delaware","Pennsylvania"
"111",-75.1032156028228,40.0513472549139,117,118,90812,"Commuter Rail","Fox Chase Line","Lawndale","SEPTA","{8032DA88-11D9-465E-81AB-59C75267EB77}","Montgomery","Pennsylvania"
"112",-75.1531625728752,40.1141682999816,87,88,90412,"Commuter Rail","Warminster Line","Ardsley","SEPTA","{B4A10BF9-BBDC-43BF-8C81-A2DAD9B9BB8C}","Montgomery","Pennsylvania"
"114",-75.2817189380641,40.2301216412485,26,27,90530,"Commuter Rail","Lansdale/Doylestown Line","Pennbrook","SEPTA","{10C858CF-1BC2-4C45-A75E-6E17288D3685}","Montgomery","Pennsylvania"
"115",-75.1308434303368,40.3060224773215,30,31,90538,"Commuter Rail","Lansdale/Doylestown Line","Doylestown","SEPTA","{1094B7DD-4A13-41F0-9031-1DCE8EF29D43}","Bucks","Pennsylvania"
"116",-75.2662882742039,40.2595313748631,24,25,90532,"Commuter Rail","Lansdale/Doylestown Line","Fortuna","SEPTA","{0DFE203A-2C55-4EE6-80FE-0D4A44F315B4}","Montgomery","Pennsylvania"
"117",-75.231820697039,40.0067721150724,9,9,90001,"Commuter Rail","Cynwyd Line","Cynwyd","SEPTA","{3709FEE2-E65A-4435-A145-FE2F58383EC4}","Montgomery","Pennsylvania"
"118",-75.1106682219736,40.1074289093626,89,90,90316,"Commuter Rail","West Trenton Line","Rydal","SEPTA","{C65C87BE-3A56-485A-A7C0-79B59DAB2AB3}","Montgomery","Pennsylvania"
"119",-74.8909075209085,40.1908661008872,38,39,90325,"Commuter Rail","West Trenton Line","Woodbourne","SEPTA","{75369FE9-2394-4828-A5A1-36044925EF48}","Bucks","Pennsylvania"
"120",-75.1780590849501,40.0232858660891,109,110,90809,"Commuter Rail","Chestnut Hill West Line","Queen Lane","SEPTA","{12A65D97-2546-48C4-AC6B-D86C28548106}","Philadelphia","Pennsylvania"
"123",-75.083410693103,40.0763930679997,146,147,90815,"Commuter Rail","Fox Chase Line","Fox Chase","SEPTA","{E4DF87D9-249F-40CC-9AD7-1AE328475DE0}","Philadelphia","Pennsylvania"
"124",-75.2798731819394,39.9005091740313,134,135,90214,"Commuter Rail","Wilmington/Newark Line","Folcroft","SEPTA","{042C7A12-F2C0-4AF4-ADE8-687D4CF0798D}","Delaware","Pennsylvania"
"125",-75.2821229251308,39.9327630141621,69,70,90310,"Commuter Rail","Media/Elwyn Line","Gladstone","SEPTA","{07675E8B-36F6-4BB0-8C12-37781DEE194A}","Delaware","Pennsylvania"
"128",-75.3946909702067,39.9142548946996,57,58,90302,"Commuter Rail","Media/Elwyn Line","Media","SEPTA","{B5BEFD87-5CB9-43A0-A19E-57C0EF3FA4B3}","Delaware","Pennsylvania"
"130",-75.1494334833375,39.9816587932341,118,119,90007,"Commuter Rail","SEPTA Main Line","Temple University","SEPTA","{65D469CF-D3A7-4529-9D7A-F57005F619EB}","Philadelphia","Pennsylvania"
"131",-75.7105783053413,40.0020769931279,44,45,90502,"Commuter Rail","Paoli/Thorndale Line","Downingtown","SEPTA","{D5749558-4F65-4CE4-AAE4-2CB42DA93496}","Chester","Pennsylvania"
"132",-75.244955415373,39.8916901093393,119,120,90405,"Commuter Rail","Airport Line","Eastwick","SEPTA","{3A528906-0003-4463-BE2F-793ACB5F8739}","Philadelphia","Pennsylvania"
"133",-75.1553237662344,39.997264912056,271,272,90810,"Commuter Rail","Trenton Line","North Philadelphia","SEPTA","{B55DBA8E-1E73-4ADF-9F74-2F05E54FC653}","Philadelphia","Pennsylvania"
"135",-75.1910746052942,40.0652757641041,98,99,90717,"Commuter Rail","Chestnut Hill East Line","Mount Airy","SEPTA","{538504C2-D969-4F11-8A7D-5174C78F47CF}","Philadelphia","Pennsylvania"
"136",-75.1719277255968,40.0378573216873,148,149,90713,"Commuter Rail","Chestnut Hill East Line","Germantown","SEPTA","{64BA6905-274D-4522-97B0-AA52F907DD5E}","Philadelphia","Pennsylvania"
"137",-75.3284815307596,39.9080064695169,15,16,90306,"Commuter Rail","Media/Elwyn Line","Morton","SEPTA","{99F5E1C6-87E6-4B3A-82AD-1305078128D9}","Delaware","Pennsylvania"
"140",-75.1822544237096,39.9566448023872,273,274,0,"Commuter Rail","Atlantic City Line","30th Street Station","NJ Transit","{2BE371E5-714D-4229-A468-A0B97498F4F9}","Philadelphia","Pennsylvania"
"145",-75.1968747873658,40.0735437921879,99,100,90718,"Commuter Rail","Chestnut Hill East Line","Wyndmoor","SEPTA","{AF12C6C9-0D68-4CD8-9E94-824BFCBB3DD5}","Philadelphia","Pennsylvania"
"146",-75.1348019596927,40.0410240018172,143,144,90407,"Commuter Rail","Glenside Combined","Fern Rock Transportation Center","SEPTA","{D288A66C-1F27-4D60-961F-E055FCBDBC4B}","Philadelphia","Pennsylvania"
"148",-75.3734362436103,40.0440953525477,126,127,90512,"Commuter Rail","Paoli/Thorndale Line","St. Davids","SEPTA","{4BD3DDC4-A171-4F03-9374-8EB7CB7CEB8D}","Delaware","Pennsylvania"
"149",-75.2498430995888,39.9898840810164,116,117,90522,"Commuter Rail","Paoli/Thorndale Line","Overbrook","SEPTA","{AA230F39-C042-4CEA-B280-7E4BF611C2EA}","Philadelphia","Pennsylvania"
"150",-75.4111576471115,39.9078521407117,56,57,90301,"Commuter Rail","Media/Elwyn Line","Elwyn","SEPTA","{378DAECA-5DAC-4CEF-9C86-71955A7F9D67}","Delaware","Pennsylvania"
"152",-75.0120496329849,40.1306248556254,122,123,90321,"Commuter Rail","West Trenton Line","Somerton","SEPTA","{E903EC76-3E66-43E2-8ADA-D94A19716549}","Philadelphia","Pennsylvania"
"157",-75.1949197446196,40.0574664872217,104,105,90804,"Commuter Rail","Chestnut Hill West Line","Allen Lane","SEPTA","{5953EEDE-C3B6-4EC2-9E3E-D9F46EA243B6}","Philadelphia","Pennsylvania"
"158",-75.2540989293308,40.2684785001284,23,24,90533,"Commuter Rail","Lansdale/Doylestown Line","Colmar","SEPTA","{B00E612B-7432-445F-9A48-80A50B2BAD2D}","Montgomery","Pennsylvania"
"159",-75.1695149115393,40.1120890334093,78,79,90523,"Commuter Rail","Lansdale/Doylestown Line","North Hills","SEPTA","{0828223A-70C2-4AB6-99C8-E327A92C9BFB}","Montgomery","Pennsylvania"
"160",-75.7527272946802,39.6701966398285,328,328,90201,"Commuter Rail","Wilmington/Newark Line","Newark","SEPTA","{81A95FED-CB45-46ED-A181-7BA3820484CA}","Bucks","Delaware"
"163",-75.1291211112315,40.059499019458,128,129,90408,"Commuter Rail","Glenside Combined","Melrose Park","SEPTA","{5E57245C-3AC4-43E2-82BC-66108A96319B}","Montgomery","Pennsylvania"
"164",-75.2114604336285,40.1352668159431,76,77,90525,"Commuter Rail","Lansdale/Doylestown Line","Fort Washington","SEPTA","{86A07A77-BD5F-4715-B3DC-9E7C3A024109}","Montgomery","Pennsylvania"
"165",-75.1342182461107,40.12084636483,86,87,90413,"Commuter Rail","Warminster Line","Roslyn","SEPTA","{52134849-72D7-4CA4-8FE2-EEED21025F81}","Montgomery","Pennsylvania"
"166",-75.3000703659248,40.0140201581337,3,3,90517,"Commuter Rail","Paoli/Thorndale Line","Haverford","SEPTA","{968F86DB-AA94-4E50-A7FB-D74151B003B5}","Montgomery","Pennsylvania"
"167",-75.3158781591504,40.0219106066035,2,2,90516,"Commuter Rail","Paoli/Thorndale Line","Bryn Mawr","SEPTA","{34721152-D2B9-49EF-88B0-CD2A28032620}","Montgomery","Pennsylvania"
"169",-75.4522176069184,39.797653848203,330,327,90204,"Commuter Rail","Wilmington/Newark Line","Claymont","SEPTA","{78B6DD71-E04A-4D43-B119-52FCB85ADBEB}","Bucks","Delaware"
"170",-75.068722536974,40.116534880105,91,92,90318,"Commuter Rail","West Trenton Line","Bethayres","SEPTA","{B2F34BFE-305D-4565-8347-097FD5AB6BCC}","Montgomery","Pennsylvania"
"171",-74.8309532768255,40.235058931689,39,40,90326,"Commuter Rail","West Trenton Line","Yardley","SEPTA","{85ACDB97-2F29-4320-BF87-FC5E65E6BF37}","Bucks","Pennsylvania"
"172",-74.8546415498254,40.1050370328575,41,42,90703,"Commuter Rail","Trenton Line","Bristol","SEPTA","{2F4DEAD3-8EF4-4FD2-93F5-828C97AAC9E1}","Bucks","Pennsylvania"
"173",-75.1143707016867,40.143693344603,83,84,90415,"Commuter Rail","Warminster Line","Willow Grove","SEPTA","{09DD2155-902E-4710-99B1-C9E472AD469B}","Montgomery","Pennsylvania"
"174",-75.2860655130611,40.0742262098968,121,122,90224,"Commuter Rail","Manayunk/Norristown Line","Spring Mill","SEPTA","{CB31ABA2-4784-4D2A-931D-BE157A85E5B8}","Montgomery","Pennsylvania"
"175",-75.5509358806406,39.7369600081868,327,330,90203,"Commuter Rail","Wilmington/Newark Line","Wilmington","SEPTA","{6931521F-8E7A-44DB-8E92-D12921AA5643}","Bucks","Delaware"
"176",-75.2439487079393,40.1697032797206,74,75,90527,"Commuter Rail","Lansdale/Doylestown Line","Penllyn","SEPTA","{D11C595D-1D35-41BE-8F7A-97585A431A96}","Montgomery","Pennsylvania"
"177",-75.1025405130588,40.1764188433135,82,83,90416,"Commuter Rail","Warminster Line","Hatboro","SEPTA","{17AF8279-6BA8-44CB-A206-BCB15B75E50D}","Montgomery","Pennsylvania"
"178",-74.9065754762155,40.093575371388,42,43,90704,"Commuter Rail","Trenton Line","Croydon","SEPTA","{A30CC2B1-F44D-40C5-8739-F0D938C5E1F6}","Bucks","Pennsylvania"
"179",-75.3086703564998,40.0721378498158,94,95,90225,"Commuter Rail","Manayunk/Norristown Line","Conshohocken","SEPTA","{F5B81537-66F0-40CD-898D-79EAF301E3C4}","Montgomery","Pennsylvania"
"180",-75.2853402552149,40.2430469223379,25,26,90531,"Commuter Rail","Lansdale/Doylestown Line","Lansdale","SEPTA","{6F09B36C-F3E8-48E6-8FF9-CD347982350D}","Montgomery","Pennsylvania"
"181",-75.3486951363975,40.1170586070175,96,97,90227,"Commuter Rail","Manayunk/Norristown Line","Main Street","SEPTA","{A704DF5A-DDBC-42D5-96C0-A58E4FEBE034}","Montgomery","Pennsylvania"
"182",-75.3440958677242,40.1126950597308,95,96,90226,"Commuter Rail","Manayunk/Norristown Line","Norristown Transportation Center","SEPTA","{86768A99-D9D2-4D7E-8885-85D2945C8C51}","Montgomery","Pennsylvania"
"183",-75.3450604457252,40.1208347074603,114,115,90228,"Commuter Rail","Manayunk/Norristown Line","Elm Street","SEPTA","{8655ADB8-2C60-445C-A157-8C40EEF4F660}","Montgomery","Pennsylvania"
"184",-74.9337026825737,40.0829936965738,43,44,90705,"Commuter Rail","Trenton Line","Eddington","SEPTA","{1C276571-5055-490D-9160-FB77574A4A11}","Bucks","Pennsylvania"
"185",-75.2107052488803,40.2877589005333,33,34,90535,"Commuter Rail","Lansdale/Doylestown Line","Chalfont","SEPTA","{C21E5384-BB29-429B-B90C-BF8C95BD7832}","Bucks","Pennsylvania"
"186",-75.2045807323842,40.0657810280971,129,130,90803,"Commuter Rail","Chestnut Hill West Line","St. Martins","SEPTA","{B1C5E200-23D4-44DB-87D8-260EA8D35BAB}","Philadelphia","Pennsylvania"
"189",-75.2249181356625,40.0267715362736,113,114,90221,"Commuter Rail","Manayunk/Norristown Line","Manayunk","SEPTA","{AE34F531-825E-4EA2-BF0D-82281C22995A}","Philadelphia","Pennsylvania"
"191",-75.6217572440421,40.0194311796835,46,47,90504,"Commuter Rail","Paoli/Thorndale Line","Exton","SEPTA","{ACD08C63-F4D5-48EF-83C1-F86B1AA80896}","Chester","Pennsylvania"
"196",-74.659429657129,40.3435153256392,282,283,0,"Commuter Rail","Northeast Corridor","Princeton","NJ Transit","{074E03D6-435A-4397-B25E-545EAE98BC74}","Mercer","New Jersey"
"197",-75.1902049918305,40.042413026972,106,107,90806,"Commuter Rail","Chestnut Hill West Line","Upsal","SEPTA","{FDF7B5DB-474C-4046-99D7-518D8F5BE7C6}","Philadelphia","Pennsylvania"
"198",-75.1236528099255,40.0327721444643,133,134,90811,"Commuter Rail","Fox Chase Line","Olney","SEPTA","{A06855B9-7602-44B9-8630-3EA4E0BB5763}","Philadelphia","Pennsylvania"
"200",-75.2084931099622,40.0762414046827,102,103,90801,"Commuter Rail","Chestnut Hill West Line","Chestnut Hill West","SEPTA","{7907C30B-42FF-4FFF-BE4A-B6F3D09F6388}","Philadelphia","Pennsylvania"
"203",-75.7628964204297,39.992772219231,125,126,90501,"Commuter Rail","Paoli/Thorndale Line","Thorndale","SEPTA","{872D8862-E019-4886-944B-F5F8F320E712}","Chester","Pennsylvania"
"206",-75.3872111852137,40.0458389422907,53,54,90511,"Commuter Rail","Paoli/Thorndale Line","Wayne","SEPTA","{55068628-78D1-43C0-BB05-4364A3B6866F}","Delaware","Pennsylvania"
"210",-75.1822544237144,39.9566448041891,29,30,90004,"Commuter Rail","SEPTA Main Line","30th Street Station","SEPTA","{0687EB29-7C97-4249-93BF-169C5C3DA705}","Philadelphia","Pennsylvania"
"213",-74.8154936830646,40.2573167695761,20,21,90327,"Commuter Rail","West Trenton Line","West Trenton","SEPTA","{A466ABA8-A425-4D5F-8444-EDD68BDC17EB}","Mercer","New Jersey"
"215",-75.3594598226783,40.0447356009028,54,55,90513,"Commuter Rail","Paoli/Thorndale Line","Radnor","SEPTA","{11D8CFBF-648D-49AE-9CC0-617C19F1B0CD}","Delaware","Pennsylvania"
"216",-75.2018377547431,40.0774747943598,100,101,90719,"Commuter Rail","Chestnut Hill East Line","Gravers Lane","SEPTA","{5920AB9B-E071-462C-8790-AB158B02F9AC}","Philadelphia","Pennsylvania"
"218",-75.1715725029843,40.051108039411,149,150,90714,"Commuter Rail","Chestnut Hill East Line","Washington Lane","SEPTA","{7C70DC42-867F-43DF-A9DC-6AB5F73DF21F}","Philadelphia","Pennsylvania"
"219",-75.3422972541808,40.0386474247408,55,56,90514,"Commuter Rail","Paoli/Thorndale Line","Villanova","SEPTA","{FFE30F1D-1247-4AAD-96B6-C14A0F8446D6}","Delaware","Pennsylvania"
"221",-75.2073275130351,40.0810414874251,101,102,90720,"Commuter Rail","Chestnut Hill East Line","Chestnut Hill East","SEPTA","{7E936D0D-D804-4E3E-A0DB-D16262476381}","Philadelphia","Pennsylvania"
"227",-75.2982074111104,39.9217632514126,135,136,90308,"Commuter Rail","Media/Elwyn Line","Primos","SEPTA","{363D0A73-A3FE-4C49-8E35-78042409353B}","Delaware","Pennsylvania"
"231",-75.341719585617,39.8573852617183,63,64,90208,"Commuter Rail","Wilmington/Newark Line","Eddystone","SEPTA","{8E9C5C70-BB26-4DDA-A328-AA8D6AB713DA}","Delaware","Pennsylvania"
"235",-75.1811429758277,40.0299803270381,108,109,90808,"Commuter Rail","Chestnut Hill West Line","Chelten Avenue","SEPTA","{FCDFCF60-7B71-47FD-B66D-8ED4FA62DBB1}","Philadelphia","Pennsylvania"
"237",-75.4229728641,40.0473692680207,51,52,90509,"Commuter Rail","Paoli/Thorndale Line","Devon","SEPTA","{F8A1397C-5F9B-488B-919E-E8F78F4F4485}","Chester","Pennsylvania"
"243",-74.907609042836,39.7835607194141,275,276,0,"Commuter Rail","Atlantic City Line","Atco","NJ Transit","{783C971F-CFBE-4D77-B8E0-8ED6B89C7903}","Camden","New Jersey"
"244",-75.062003647249,39.9778978927686,299,300,0,"Commuter Rail","Atlantic City Line","Pennsauken Transit Center","NJ Transit","{01A93325-7009-4CE5-92EF-6516C80D88C1}","Camden","New Jersey"
"245",-75.2416581873523,39.8773195952718,140,141,90402,"Commuter Rail","Airport Line","Airport Terminal C & D","SEPTA","{B5FBC0E2-33AC-43D2-A689-7DED667D125D}","Philadelphia","Pennsylvania"
"246",-75.1565853974728,39.9972228982557,142,143,90810,"Commuter Rail","Chestnut Hill West Line","North Philadelphia","SEPTA","{F467D78C-9FE8-4959-AF5F-D1C504F853F6}","Philadelphia","Pennsylvania"
"249",-74.6241020354391,40.3160270364101,272,273,0,"Commuter Rail","Northeast Corridor","Princeton Junction","NJ Transit","{79D39F84-5B60-41BA-A44B-AFA51CEFA759}","Mercer","New Jersey"
"252",-75.2277475837039,40.0010290668565,8,8,90002,"Commuter Rail","Cynwyd Line","Bala","SEPTA","{405EF532-64C7-4934-85FC-29D8D2CE04A7}","Montgomery","Pennsylvania"
"255",-75.3716048726029,39.9037480406354,59,60,90304,"Commuter Rail","Media/Elwyn Line","Wallingford","SEPTA","{E7ECA2CC-7D62-4C9C-94C7-F41EC81965DF}","Delaware","Pennsylvania"
"259",-75.4037376314965,40.0497124896505,52,53,90510,"Commuter Rail","Paoli/Thorndale Line","Strafford","SEPTA","{A7EE0B39-E287-4267-93F0-30A899C4923E}","Chester","Pennsylvania"
"261",-75.2446426265285,39.8764224299573,139,140,90403,"Commuter Rail","Airport Line","Airport Terminal B","SEPTA","{DFF8F4C6-7ED8-4A42-A674-AECFE353D650}","Philadelphia","Pennsylvania"
"264",-75.0005070936955,39.8338429469934,281,282,0,"Commuter Rail","Atlantic City Line","Lindenwold","NJ Transit","{E23963B9-DEA8-4B01-A625-A42B68BE35AB}","Camden","New Jersey"
"267",-75.3219289178278,39.8806229867205,65,66,90210,"Commuter Rail","Wilmington/Newark Line","Ridley Park","SEPTA","{35697B28-5DEA-48A0-81F5-EDC84D59A856}","Delaware","Pennsylvania"
"271",-75.3309607994985,39.8718702685891,64,65,90209,"Commuter Rail","Wilmington/Newark Line","Crum Lynne","SEPTA","{C02F11E8-0138-44AC-8C10-73248D8E182B}","Delaware","Pennsylvania"
"275",-75.0437958173473,40.1219083836688,92,93,90319,"Commuter Rail","West Trenton Line","Philmont","SEPTA","{5AA015B6-D288-430D-9FEF-8DEE11133711}","Montgomery","Pennsylvania"
"276",-75.1186490101595,40.133272513279,85,86,90414,"Commuter Rail","Warminster Line","Crestmont","SEPTA","{D1E143B0-AEA5-48F7-8220-E92C8A392F99}","Montgomery","Pennsylvania"
"277",-74.9522446938271,40.0717791692328,124,125,90706,"Commuter Rail","Trenton Line","Cornwells Heights","SEPTA","{A0FB9A07-0D8B-4D54-AC08-01F0F4158D20}","Bucks","Pennsylvania"
"278",-75.1617899254515,40.2972372201585,31,32,90537,"Commuter Rail","Lansdale/Doylestown Line","Delaware Valley College","SEPTA","{0994A83F-0A78-450A-B1F9-920DFF4E37B3}","Bucks","Pennsylvania"
"279",-74.9827546089801,40.1401402794803,35,36,90322,"Commuter Rail","West Trenton Line","Trevose","SEPTA","{4EB2434A-BF7D-4E6C-B0B1-01B3CD7B9985}","Bucks","Pennsylvania"
"286",-75.2467339510818,39.8760036831769,138,139,90404,"Commuter Rail","Airport Line","Airport Terminal A","SEPTA","{943FB0C4-6DFA-4F64-97AB-104CC109F0CE}","Philadelphia","Pennsylvania"
"293",-75.5155792212421,40.0364450325167,47,48,90505,"Commuter Rail","Paoli/Thorndale Line","Malvern","SEPTA","{3BC9A9BB-EBA5-424E-8C88-5F30870BE315}","Chester","Pennsylvania"
"296",-75.3600691255614,39.8494803252821,62,63,90207,"Commuter Rail","Wilmington/Newark Line","Chester Transportation Center","SEPTA","{52421259-FC75-4A17-865B-D287B8A29867}","Delaware","Pennsylvania"
"298",-75.1600417306795,40.0225080862436,131,132,90009,"Commuter Rail","SEPTA Main Line","Wayne Junction","SEPTA","{0CBF1104-69A7-4306-83F7-36D461FE999E}","Philadelphia","Pennsylvania"
"299",-75.38810170124,39.9058510100767,58,59,90303,"Commuter Rail","Media/Elwyn Line","Moylan-Rose Valley","SEPTA","{80CE869D-DF38-49F9-B1E1-85627F26EF1C}","Delaware","Pennsylvania"
"300",-75.0390238878196,40.0232259250954,13,13,90709,"Commuter Rail","Trenton Line","Tacony","SEPTA","{1E36072B-3CE5-486B-9B3E-FF685D04DE81}","Philadelphia","Pennsylvania"
"302",-75.1673386259548,39.9541969946567,27,28,90005,"Commuter Rail","SEPTA Main Line","Suburban Station","SEPTA","{601A8C2F-4207-4F13-8DBB-D7D5AA2226C3}","Philadelphia","Pennsylvania"
"304",-75.6384404326959,40.0147123685559,45,46,90503,"Commuter Rail","Paoli/Thorndale Line","Whitford","SEPTA","{5539826C-B70B-48B3-9700-FE3672C2CB2D}","Chester","Pennsylvania"
"305",-75.2558295202035,39.9397224510756,71,72,90312,"Commuter Rail","Media/Elwyn Line","Fernwood-Yeadon","SEPTA","{929C62FD-50D6-4440-8861-4BED0FE4CB70}","Delaware","Pennsylvania"
"306",-75.2355024768907,40.0341328384465,130,131,90222,"Commuter Rail","Manayunk/Norristown Line","Ivy Ridge","SEPTA","{07A027A5-8FFD-4788-8911-85B172EF4AE9}","Philadelphia","Pennsylvania"
"308",-75.1788073911463,40.0605440954115,84,85,90715,"Commuter Rail","Chestnut Hill East Line","Stenton","SEPTA","{274AC858-7F48-48FD-A8EA-553F8803EAC7}","Philadelphia","Pennsylvania"
"318",-75.2111044657546,40.0703058789327,103,104,90802,"Commuter Rail","Chestnut Hill West Line","Highland","SEPTA","{AE0C3018-1E0F-4435-9F8D-756D6ED6B67D}","Philadelphia","Pennsylvania"
"321",-75.1796647487945,40.2974895120312,32,33,90536,"Commuter Rail","Lansdale/Doylestown Line","New Britain","SEPTA","{A7E1DAF9-62C7-46B6-A213-B8019196C1C4}","Bucks","Pennsylvania"
"322",-75.2248996717271,40.1536580369709,75,76,90526,"Commuter Rail","Lansdale/Doylestown Line","Ambler","SEPTA","{EBF1EAE7-D66A-4E6B-9CDF-5A39676E62DC}","Montgomery","Pennsylvania"
"323",-75.2664136520036,40.0585570497799,93,94,90223,"Commuter Rail","Manayunk/Norristown Line","Miquon","SEPTA","{C935FFF6-F2DF-4D1E-A5F0-EAD590E46480}","Montgomery","Pennsylvania"
"324",-75.1377791143996,40.0932206072887,80,81,90410,"Commuter Rail","Glenside Combined","Jenkintown-Wyncote","SEPTA","{24EE88A9-3EEF-4E80-A87A-93A4DFAB81F6}","Montgomery","Pennsylvania"
"325",-75.1276710296715,40.0712328023253,81,82,90409,"Commuter Rail","Glenside Combined","Elkins Park","SEPTA","{04132055-83ED-4253-9C50-FDDAF6645D8C}","Montgomery","Pennsylvania"
"326",-75.1245054928906,40.1043642474315,88,89,90315,"Commuter Rail","West Trenton Line","Noble","SEPTA","{69393E63-D15B-4EAB-9EA7-BC4EA78BB018}","Montgomery","Pennsylvania"
"327",-75.1537142924085,40.1013438809543,79,80,90411,"Commuter Rail","Glenside Combined","Glenside","SEPTA","{B64D3F0B-E561-42DE-B432-5BA8934FD643}","Montgomery","Pennsylvania"
"328",-75.0890975810596,40.1951158800849,34,35,90417,"Commuter Rail","Warminster Line","Warminster","SEPTA","{17B1C0CC-B44D-41A4-A1C5-E7FB5AE56BA9}","Bucks","Pennsylvania"
"329",-75.2731184761858,40.002825783473,5,5,90519,"Commuter Rail","Paoli/Thorndale Line","Wynnewood","SEPTA","{3B2AB560-1837-4E93-B940-9EBEF506EBA1}","Montgomery","Pennsylvania"
"331",-74.8170164356414,40.1402588397796,40,41,90702,"Commuter Rail","Trenton Line","Levittown","SEPTA","{7C638D80-30D5-4F48-A17D-7CDFA9DB1914}","Bucks","Pennsylvania"
